{"type":"FeatureCollection","features":[{"type":"Feature","geometry":{"type":"Point","coordinates":[15.871624,41.926591,0]},"properties":{"name":"CUSTODE","styleUrl":"#icon-1899-0288D1-nodesc","label-scale":0,"icon-opacity":1,"icon-color":"#0288d1","icon-scale":1,"icon-offset":[32,64],"icon-offset-units":["pixels","insetPixels"],"icon":"https://www.gstatic.com/mapspro/images/stock/503-wht-blank_maps.png"}},{"type":"Feature","geometry":{"type":"Point","coordinates":[15.871679,41.926588,0]},"properties":{"name":"FUNERAL HOME","styleUrl":"#icon-1899-0288D1-nodesc","label-scale":0,"icon-opacity":1,"icon-color":"#0288d1","icon-scale":1,"icon-offset":[32,64],"icon-offset-units":["pixels","insetPixels"],"icon":"https://www.gstatic.com/mapspro/images/stock/503-wht-blank_maps.png"}},{"type":"Feature","geometry":{"type":"Point","coordinates":[15.871533,41.926591,0]},"properties":{"name":"BAGNO","styleUrl":"#icon-1899-0288D1-nodesc","label-scale":0,"icon-opacity":1,"icon-color":"#0288d1","icon-scale":1,"icon-offset":[32,64],"icon-offset-units":["pixels","insetPixels"],"icon":"https://www.gstatic.com/mapspro/images/stock/503-wht-blank_maps.png"}},{"type":"Feature","geometry":{"type":"Point","coordinates":[15.871534,41.926638,0]},"properties":{"name":"OBITORIO","styleUrl":"#icon-1899-0288D1-nodesc","label-scale":0,"icon-opacity":1,"icon-color":"#0288d1","icon-scale":1,"icon-offset":[32,64],"icon-offset-units":["pixels","insetPixels"],"icon":"https://www.gstatic.com/mapspro/images/stock/503-wht-blank_maps.png"}},{"type":"Feature","geometry":{"type":"Point","coordinates":[15.871759,41.926662,0]},"properties":{"name":"CHIESA CROCEFISSO","styleUrl":"#icon-1899-0288D1-nodesc","label-scale":0,"icon-opacity":1,"icon-color":"#0288d1","icon-scale":1,"icon-offset":[32,64],"icon-offset-units":["pixels","insetPixels"],"icon":"https://www.gstatic.com/mapspro/images/stock/503-wht-blank_maps.png"}},{"type":"Feature","geometry":{"type":"Point","coordinates":[15.873257,41.927261,0]},"properties":{"name":"16 F","styleUrl":"#icon-1899-0288D1-nodesc","label-scale":0,"icon-opacity":1,"icon-color":"#0288d1","icon-scale":1,"icon-offset":[32,64],"icon-offset-units":["pixels","insetPixels"],"icon":"https://www.gstatic.com/mapspro/images/stock/503-wht-blank_maps.png"}},{"type":"Feature","geometry":{"type":"Point","coordinates":[15.873172,41.927214,0]},"properties":{"name":"15 F","styleUrl":"#icon-1899-0288D1-nodesc","label-scale":0,"icon-opacity":1,"icon-color":"#0288d1","icon-scale":1,"icon-offset":[32,64],"icon-offset-units":["pixels","insetPixels"],"icon":"https://www.gstatic.com/mapspro/images/stock/503-wht-blank_maps.png"}},{"type":"Feature","geometry":{"type":"Point","coordinates":[15.873122,41.927195,0]},"properties":{"name":"14 F","styleUrl":"#icon-1899-0288D1-nodesc","label-scale":0,"icon-opacity":1,"icon-color":"#0288d1","icon-scale":1,"icon-offset":[32,64],"icon-offset-units":["pixels","insetPixels"],"icon":"https://www.gstatic.com/mapspro/images/stock/503-wht-blank_maps.png"}},{"type":"Feature","geometry":{"type":"Point","coordinates":[15.873066,41.927186,0]},"properties":{"name":"13 F","styleUrl":"#icon-1899-0288D1-nodesc","label-scale":0,"icon-opacity":1,"icon-color":"#0288d1","icon-scale":1,"icon-offset":[32,64],"icon-offset-units":["pixels","insetPixels"],"icon":"https://www.gstatic.com/mapspro/images/stock/503-wht-blank_maps.png"}},{"type":"Feature","geometry":{"type":"Point","coordinates":[15.873041,41.927236,0]},"properties":{"name":"12 F","styleUrl":"#icon-1899-0288D1-nodesc","label-scale":0,"icon-opacity":1,"icon-color":"#0288d1","icon-scale":1,"icon-offset":[32,64],"icon-offset-units":["pixels","insetPixels"],"icon":"https://www.gstatic.com/mapspro/images/stock/503-wht-blank_maps.png"}},{"type":"Feature","geometry":{"type":"Point","coordinates":[15.872979,41.92722,0]},"properties":{"name":"31 F","styleUrl":"#icon-1899-0288D1-nodesc","label-scale":0,"icon-opacity":1,"icon-color":"#0288d1","icon-scale":1,"icon-offset":[32,64],"icon-offset-units":["pixels","insetPixels"],"icon":"https://www.gstatic.com/mapspro/images/stock/503-wht-blank_maps.png"}},{"type":"Feature","geometry":{"type":"Point","coordinates":[15.872922,41.927203,0]},"properties":{"name":"11 F","styleUrl":"#icon-1899-0288D1-nodesc","label-scale":0,"icon-opacity":1,"icon-color":"#0288d1","icon-scale":1,"icon-offset":[32,64],"icon-offset-units":["pixels","insetPixels"],"icon":"https://www.gstatic.com/mapspro/images/stock/503-wht-blank_maps.png"}},{"type":"Feature","geometry":{"type":"Point","coordinates":[15.872853,41.927193,0]},"properties":{"name":"10 F","styleUrl":"#icon-1899-0288D1-nodesc","label-scale":0,"icon-opacity":1,"icon-color":"#0288d1","icon-scale":1,"icon-offset":[32,64],"icon-offset-units":["pixels","insetPixels"],"icon":"https://www.gstatic.com/mapspro/images/stock/503-wht-blank_maps.png"}},{"type":"Feature","geometry":{"type":"Point","coordinates":[15.872905,41.92714,0]},"properties":{"name":"30 F","styleUrl":"#icon-1899-0288D1-nodesc","label-scale":0,"icon-opacity":1,"icon-color":"#0288d1","icon-scale":1,"icon-offset":[32,64],"icon-offset-units":["pixels","insetPixels"],"icon":"https://www.gstatic.com/mapspro/images/stock/503-wht-blank_maps.png"}},{"type":"Feature","geometry":{"type":"Point","coordinates":[15.87318,41.927164,0]},"properties":{"name":"18 F","styleUrl":"#icon-1899-0288D1-nodesc","label-scale":0,"icon-opacity":1,"icon-color":"#0288d1","icon-scale":1,"icon-offset":[32,64],"icon-offset-units":["pixels","insetPixels"],"icon":"https://www.gstatic.com/mapspro/images/stock/503-wht-blank_maps.png"}},{"type":"Feature","geometry":{"type":"Point","coordinates":[15.873102,41.927151,0]},"properties":{"name":"17 F","styleUrl":"#icon-1899-0288D1-nodesc","label-scale":0,"icon-opacity":1,"icon-color":"#0288d1","icon-scale":1,"icon-offset":[32,64],"icon-offset-units":["pixels","insetPixels"],"icon":"https://www.gstatic.com/mapspro/images/stock/503-wht-blank_maps.png"}},{"type":"Feature","geometry":{"type":"Point","coordinates":[15.873076,41.927103,0]},"properties":{"name":"28 F","styleUrl":"#icon-1899-0288D1-nodesc","label-scale":0,"icon-opacity":1,"icon-color":"#0288d1","icon-scale":1,"icon-offset":[32,64],"icon-offset-units":["pixels","insetPixels"],"icon":"https://www.gstatic.com/mapspro/images/stock/503-wht-blank_maps.png"}},{"type":"Feature","geometry":{"type":"Point","coordinates":[15.87323,41.927111,0]},"properties":{"name":"19 F","styleUrl":"#icon-1899-0288D1-nodesc","label-scale":0,"icon-opacity":1,"icon-color":"#0288d1","icon-scale":1,"icon-offset":[32,64],"icon-offset-units":["pixels","insetPixels"],"icon":"https://www.gstatic.com/mapspro/images/stock/503-wht-blank_maps.png"}},{"type":"Feature","geometry":{"type":"Point","coordinates":[15.873217,41.927052,0]},"properties":{"name":"20 F","styleUrl":"#icon-1899-0288D1-nodesc","label-scale":0,"icon-opacity":1,"icon-color":"#0288d1","icon-scale":1,"icon-offset":[32,64],"icon-offset-units":["pixels","insetPixels"],"icon":"https://www.gstatic.com/mapspro/images/stock/503-wht-blank_maps.png"}},{"type":"Feature","geometry":{"type":"Point","coordinates":[15.873163,41.926996,0]},"properties":{"name":"21 F","styleUrl":"#icon-1899-0288D1-nodesc","label-scale":0,"icon-opacity":1,"icon-color":"#0288d1","icon-scale":1,"icon-offset":[32,64],"icon-offset-units":["pixels","insetPixels"],"icon":"https://www.gstatic.com/mapspro/images/stock/503-wht-blank_maps.png"}},{"type":"Feature","geometry":{"type":"Point","coordinates":[15.873102,41.926977,0]},"properties":{"name":"22 F","styleUrl":"#icon-1899-0288D1-nodesc","label-scale":0,"icon-opacity":1,"icon-color":"#0288d1","icon-scale":1,"icon-offset":[32,64],"icon-offset-units":["pixels","insetPixels"],"icon":"https://www.gstatic.com/mapspro/images/stock/503-wht-blank_maps.png"}},{"type":"Feature","geometry":{"type":"Point","coordinates":[15.873038,41.926966,0]},"properties":{"name":"23 F","styleUrl":"#icon-1899-0288D1-nodesc","label-scale":0,"icon-opacity":1,"icon-color":"#0288d1","icon-scale":1,"icon-offset":[32,64],"icon-offset-units":["pixels","insetPixels"],"icon":"https://www.gstatic.com/mapspro/images/stock/503-wht-blank_maps.png"}},{"type":"Feature","geometry":{"type":"Point","coordinates":[15.873045,41.927074,0]},"properties":{"name":"27 F","styleUrl":"#icon-1899-0288D1-nodesc","label-scale":0,"icon-opacity":1,"icon-color":"#0288d1","icon-scale":1,"icon-offset":[32,64],"icon-offset-units":["pixels","insetPixels"],"icon":"https://www.gstatic.com/mapspro/images/stock/503-wht-blank_maps.png"}},{"type":"Feature","geometry":{"type":"Point","coordinates":[15.872962,41.926974,0]},"properties":{"name":"24 F","styleUrl":"#icon-1899-0288D1-nodesc","label-scale":0,"icon-opacity":1,"icon-color":"#0288d1","icon-scale":1,"icon-offset":[32,64],"icon-offset-units":["pixels","insetPixels"],"icon":"https://www.gstatic.com/mapspro/images/stock/503-wht-blank_maps.png"}},{"type":"Feature","geometry":{"type":"Point","coordinates":[15.8729,41.927007,0]},"properties":{"name":"25 F","styleUrl":"#icon-1899-0288D1-nodesc","label-scale":0,"icon-opacity":1,"icon-color":"#0288d1","icon-scale":1,"icon-offset":[32,64],"icon-offset-units":["pixels","insetPixels"],"icon":"https://www.gstatic.com/mapspro/images/stock/503-wht-blank_maps.png"}},{"type":"Feature","geometry":{"type":"Point","coordinates":[15.872986,41.927048,0]},"properties":{"name":"26 F","styleUrl":"#icon-1899-0288D1-nodesc","label-scale":0,"icon-opacity":1,"icon-color":"#0288d1","icon-scale":1,"icon-offset":[32,64],"icon-offset-units":["pixels","insetPixels"],"icon":"https://www.gstatic.com/mapspro/images/stock/503-wht-blank_maps.png"}},{"type":"Feature","geometry":{"type":"Point","coordinates":[15.873024,41.92693,0]},"properties":{"name":"3 G","styleUrl":"#icon-1899-0288D1-nodesc","label-scale":0,"icon-opacity":1,"icon-color":"#0288d1","icon-scale":1,"icon-offset":[32,64],"icon-offset-units":["pixels","insetPixels"],"icon":"https://www.gstatic.com/mapspro/images/stock/503-wht-blank_maps.png"}},{"type":"Feature","geometry":{"type":"Point","coordinates":[15.873088,41.926936,0]},"properties":{"name":"4 G","styleUrl":"#icon-1899-0288D1-nodesc","label-scale":0,"icon-opacity":1,"icon-color":"#0288d1","icon-scale":1,"icon-offset":[32,64],"icon-offset-units":["pixels","insetPixels"],"icon":"https://www.gstatic.com/mapspro/images/stock/503-wht-blank_maps.png"}},{"type":"Feature","geometry":{"type":"Point","coordinates":[15.87315,41.926953,0]},"properties":{"name":"5 G","styleUrl":"#icon-1899-0288D1-nodesc","label-scale":0,"icon-opacity":1,"icon-color":"#0288d1","icon-scale":1,"icon-offset":[32,64],"icon-offset-units":["pixels","insetPixels"],"icon":"https://www.gstatic.com/mapspro/images/stock/503-wht-blank_maps.png"}},{"type":"Feature","geometry":{"type":"Point","coordinates":[15.873205,41.926981,0]},"properties":{"name":"6 G","styleUrl":"#icon-1899-0288D1-nodesc","label-scale":0,"icon-opacity":1,"icon-color":"#0288d1","icon-scale":1,"icon-offset":[32,64],"icon-offset-units":["pixels","insetPixels"],"icon":"https://www.gstatic.com/mapspro/images/stock/503-wht-blank_maps.png"}},{"type":"Feature","geometry":{"type":"Point","coordinates":[15.873021,41.926866,0]},"properties":{"name":"15 G","styleUrl":"#icon-1899-0288D1-nodesc","label-scale":0,"icon-opacity":1,"icon-color":"#0288d1","icon-scale":1,"icon-offset":[32,64],"icon-offset-units":["pixels","insetPixels"],"icon":"https://www.gstatic.com/mapspro/images/stock/503-wht-blank_maps.png"}},{"type":"Feature","geometry":{"type":"Point","coordinates":[15.87311,41.926862,0]},"properties":{"name":"14 G","styleUrl":"#icon-1899-0288D1-nodesc","label-scale":0,"icon-opacity":1,"icon-color":"#0288d1","icon-scale":1,"icon-offset":[32,64],"icon-offset-units":["pixels","insetPixels"],"icon":"https://www.gstatic.com/mapspro/images/stock/503-wht-blank_maps.png"}},{"type":"Feature","geometry":{"type":"Point","coordinates":[15.873189,41.92688,0]},"properties":{"name":"12 G","styleUrl":"#icon-1899-0288D1-nodesc","label-scale":0,"icon-opacity":1,"icon-color":"#0288d1","icon-scale":1,"icon-offset":[32,64],"icon-offset-units":["pixels","insetPixels"],"icon":"https://www.gstatic.com/mapspro/images/stock/503-wht-blank_maps.png"}},{"type":"Feature","geometry":{"type":"Point","coordinates":[15.873153,41.926834,0]},"properties":{"name":"11 G","styleUrl":"#icon-1899-0288D1-nodesc","label-scale":0,"icon-opacity":1,"icon-color":"#0288d1","icon-scale":1,"icon-offset":[32,64],"icon-offset-units":["pixels","insetPixels"],"icon":"https://www.gstatic.com/mapspro/images/stock/503-wht-blank_maps.png"}},{"type":"Feature","geometry":{"type":"Point","coordinates":[15.873086,41.926824,0]},"properties":{"name":"10 G","styleUrl":"#icon-1899-0288D1-nodesc","label-scale":0,"icon-opacity":1,"icon-color":"#0288d1","icon-scale":1,"icon-offset":[32,64],"icon-offset-units":["pixels","insetPixels"],"icon":"https://www.gstatic.com/mapspro/images/stock/503-wht-blank_maps.png"}},{"type":"Feature","geometry":{"type":"Point","coordinates":[15.872986,41.926802,0]},"properties":{"name":"21 G","styleUrl":"#icon-1899-0288D1-nodesc","label-scale":0,"icon-opacity":1,"icon-color":"#0288d1","icon-scale":1,"icon-offset":[32,64],"icon-offset-units":["pixels","insetPixels"],"icon":"https://www.gstatic.com/mapspro/images/stock/503-wht-blank_maps.png"}},{"type":"Feature","geometry":{"type":"Point","coordinates":[15.873017,41.926825,0]},"properties":{"name":"9 G","styleUrl":"#icon-1899-0288D1-nodesc","label-scale":0,"icon-opacity":1,"icon-color":"#0288d1","icon-scale":1,"icon-offset":[32,64],"icon-offset-units":["pixels","insetPixels"],"icon":"https://www.gstatic.com/mapspro/images/stock/503-wht-blank_maps.png"}},{"type":"Feature","geometry":{"type":"Point","coordinates":[15.872959,41.926769,0]},"properties":{"name":"20 G","styleUrl":"#icon-1899-0288D1-nodesc","label-scale":0,"icon-opacity":1,"icon-color":"#0288d1","icon-scale":1,"icon-offset":[32,64],"icon-offset-units":["pixels","insetPixels"],"icon":"https://www.gstatic.com/mapspro/images/stock/503-wht-blank_maps.png"}},{"type":"Feature","geometry":{"type":"Point","coordinates":[15.872937,41.926738,0]},"properties":{"name":"19 G","styleUrl":"#icon-1899-0288D1-nodesc","label-scale":0,"icon-opacity":1,"icon-color":"#0288d1","icon-scale":1,"icon-offset":[32,64],"icon-offset-units":["pixels","insetPixels"],"icon":"https://www.gstatic.com/mapspro/images/stock/503-wht-blank_maps.png"}},{"type":"Feature","geometry":{"type":"Point","coordinates":[15.872888,41.926775,0]},"properties":{"name":"18 G","styleUrl":"#icon-1899-0288D1-nodesc","label-scale":0,"icon-opacity":1,"icon-color":"#0288d1","icon-scale":1,"icon-offset":[32,64],"icon-offset-units":["pixels","insetPixels"],"icon":"https://www.gstatic.com/mapspro/images/stock/503-wht-blank_maps.png"}},{"type":"Feature","geometry":{"type":"Point","coordinates":[15.872893,41.926823,0]},"properties":{"name":"16 G","styleUrl":"#icon-1899-0288D1-nodesc","label-scale":0,"icon-opacity":1,"icon-color":"#0288d1","icon-scale":1,"icon-offset":[32,64],"icon-offset-units":["pixels","insetPixels"],"icon":"https://www.gstatic.com/mapspro/images/stock/503-wht-blank_maps.png"}},{"type":"Feature","geometry":{"type":"Point","coordinates":[15.872833,41.926835,0]},"properties":{"name":"17 G","styleUrl":"#icon-1899-0288D1-nodesc","label-scale":0,"icon-opacity":1,"icon-color":"#0288d1","icon-scale":1,"icon-offset":[32,64],"icon-offset-units":["pixels","insetPixels"],"icon":"https://www.gstatic.com/mapspro/images/stock/503-wht-blank_maps.png"}},{"type":"Feature","geometry":{"type":"Point","coordinates":[15.872843,41.926914,0]},"properties":{"name":"1 G","styleUrl":"#icon-1899-0288D1-nodesc","label-scale":0,"icon-opacity":1,"icon-color":"#0288d1","icon-scale":1,"icon-offset":[32,64],"icon-offset-units":["pixels","insetPixels"],"icon":"https://www.gstatic.com/mapspro/images/stock/503-wht-blank_maps.png"}},{"type":"Feature","geometry":{"type":"Point","coordinates":[15.872884,41.926959,0]},"properties":{"name":"2 G","styleUrl":"#icon-1899-0288D1-nodesc","label-scale":0,"icon-opacity":1,"icon-color":"#0288d1","icon-scale":1,"icon-offset":[32,64],"icon-offset-units":["pixels","insetPixels"],"icon":"https://www.gstatic.com/mapspro/images/stock/503-wht-blank_maps.png"}},{"type":"Feature","geometry":{"type":"Point","coordinates":[15.872944,41.92687,0]},"properties":{"name":"8 G","styleUrl":"#icon-1899-0288D1-nodesc","label-scale":0,"icon-opacity":1,"icon-color":"#0288d1","icon-scale":1,"icon-offset":[32,64],"icon-offset-units":["pixels","insetPixels"],"icon":"https://www.gstatic.com/mapspro/images/stock/503-wht-blank_maps.png"}},{"type":"Feature","geometry":{"type":"Point","coordinates":[15.872962,41.926926,0]},"properties":{"name":"7 G","styleUrl":"#icon-1899-0288D1-nodesc","label-scale":0,"icon-opacity":1,"icon-color":"#0288d1","icon-scale":1,"icon-offset":[32,64],"icon-offset-units":["pixels","insetPixels"],"icon":"https://www.gstatic.com/mapspro/images/stock/503-wht-blank_maps.png"}},{"type":"Feature","geometry":{"type":"Point","coordinates":[15.873135,41.926804,0]},"properties":{"name":"13 G","styleUrl":"#icon-1899-0288D1-nodesc","label-scale":0,"icon-opacity":1,"icon-color":"#0288d1","icon-scale":1,"icon-offset":[32,64],"icon-offset-units":["pixels","insetPixels"],"icon":"https://www.gstatic.com/mapspro/images/stock/503-wht-blank_maps.png"}},{"type":"Feature","geometry":{"type":"Point","coordinates":[15.872851,41.926989,0]},"properties":{"name":"2 F","styleUrl":"#icon-1899-0288D1-nodesc","label-scale":0,"icon-opacity":1,"icon-color":"#0288d1","icon-scale":1,"icon-offset":[32,64],"icon-offset-units":["pixels","insetPixels"],"icon":"https://www.gstatic.com/mapspro/images/stock/503-wht-blank_maps.png"}},{"type":"Feature","geometry":{"type":"Point","coordinates":[15.872805,41.927032,0]},"properties":{"name":"3 F","styleUrl":"#icon-1899-0288D1-nodesc","label-scale":0,"icon-opacity":1,"icon-color":"#0288d1","icon-scale":1,"icon-offset":[32,64],"icon-offset-units":["pixels","insetPixels"],"icon":"https://www.gstatic.com/mapspro/images/stock/503-wht-blank_maps.png"}},{"type":"Feature","geometry":{"type":"Point","coordinates":[15.872721,41.92704,0]},"properties":{"name":"4 F","styleUrl":"#icon-1899-0288D1-nodesc","label-scale":0,"icon-opacity":1,"icon-color":"#0288d1","icon-scale":1,"icon-offset":[32,64],"icon-offset-units":["pixels","insetPixels"],"icon":"https://www.gstatic.com/mapspro/images/stock/503-wht-blank_maps.png"}},{"type":"Feature","geometry":{"type":"Point","coordinates":[15.87279,41.926968,0]},"properties":{"name":"1 F","styleUrl":"#icon-1899-0288D1-nodesc","label-scale":0,"icon-opacity":1,"icon-color":"#0288d1","icon-scale":1,"icon-offset":[32,64],"icon-offset-units":["pixels","insetPixels"],"icon":"https://www.gstatic.com/mapspro/images/stock/503-wht-blank_maps.png"}},{"type":"Feature","geometry":{"type":"Point","coordinates":[15.872726,41.927069,0]},"properties":{"name":"5 F","styleUrl":"#icon-1899-0288D1-nodesc","label-scale":0,"icon-opacity":1,"icon-color":"#0288d1","icon-scale":1,"icon-offset":[32,64],"icon-offset-units":["pixels","insetPixels"],"icon":"https://www.gstatic.com/mapspro/images/stock/503-wht-blank_maps.png"}},{"type":"Feature","geometry":{"type":"Point","coordinates":[15.87279,41.927082,0]},"properties":{"name":"5 F","styleUrl":"#icon-1899-0288D1-nodesc","label-scale":0,"icon-opacity":1,"icon-color":"#0288d1","icon-scale":1,"icon-offset":[32,64],"icon-offset-units":["pixels","insetPixels"],"icon":"https://www.gstatic.com/mapspro/images/stock/503-wht-blank_maps.png"}},{"type":"Feature","geometry":{"type":"Point","coordinates":[15.872848,41.927109,0]},"properties":{"name":"7 F","styleUrl":"#icon-1899-0288D1-nodesc","label-scale":0,"icon-opacity":1,"icon-color":"#0288d1","icon-scale":1,"icon-offset":[32,64],"icon-offset-units":["pixels","insetPixels"],"icon":"https://www.gstatic.com/mapspro/images/stock/503-wht-blank_maps.png"}},{"type":"Feature","geometry":{"type":"Point","coordinates":[15.872774,41.927199,0]},"properties":{"name":"29 F","styleUrl":"#icon-1899-0288D1-nodesc","label-scale":0,"icon-opacity":1,"icon-color":"#0288d1","icon-scale":1,"icon-offset":[32,64],"icon-offset-units":["pixels","insetPixels"],"icon":"https://www.gstatic.com/mapspro/images/stock/503-wht-blank_maps.png"}},{"type":"Feature","geometry":{"type":"Point","coordinates":[15.872717,41.927185,0]},"properties":{"name":"16 E","styleUrl":"#icon-1899-0288D1-nodesc","label-scale":0,"icon-opacity":1,"icon-color":"#0288d1","icon-scale":1,"icon-offset":[32,64],"icon-offset-units":["pixels","insetPixels"],"icon":"https://www.gstatic.com/mapspro/images/stock/503-wht-blank_maps.png"}},{"type":"Feature","geometry":{"type":"Point","coordinates":[15.872686,41.927224,0]},"properties":{"name":"18 E","styleUrl":"#icon-1899-0288D1-nodesc","label-scale":0,"icon-opacity":1,"icon-color":"#0288d1","icon-scale":1,"icon-offset":[32,64],"icon-offset-units":["pixels","insetPixels"],"icon":"https://www.gstatic.com/mapspro/images/stock/503-wht-blank_maps.png"}},{"type":"Feature","geometry":{"type":"Point","coordinates":[15.872661,41.927148,0]},"properties":{"name":"14 E","styleUrl":"#icon-1899-0288D1-nodesc","label-scale":0,"icon-opacity":1,"icon-color":"#0288d1","icon-scale":1,"icon-offset":[32,64],"icon-offset-units":["pixels","insetPixels"],"icon":"https://www.gstatic.com/mapspro/images/stock/503-wht-blank_maps.png"}},{"type":"Feature","geometry":{"type":"Point","coordinates":[15.872605,41.927126,0]},"properties":{"name":"12 E","styleUrl":"#icon-1899-0288D1-nodesc","label-scale":0,"icon-opacity":1,"icon-color":"#0288d1","icon-scale":1,"icon-offset":[32,64],"icon-offset-units":["pixels","insetPixels"],"icon":"https://www.gstatic.com/mapspro/images/stock/503-wht-blank_maps.png"}},{"type":"Feature","geometry":{"type":"Point","coordinates":[15.872554,41.927089,0]},"properties":{"name":"10 E","styleUrl":"#icon-1899-0288D1-nodesc","label-scale":0,"icon-opacity":1,"icon-color":"#0288d1","icon-scale":1,"icon-offset":[32,64],"icon-offset-units":["pixels","insetPixels"],"icon":"https://www.gstatic.com/mapspro/images/stock/503-wht-blank_maps.png"}},{"type":"Feature","geometry":{"type":"Point","coordinates":[15.872507,41.92707,0]},"properties":{"name":"8 E","styleUrl":"#icon-1899-0288D1-nodesc","label-scale":0,"icon-opacity":1,"icon-color":"#0288d1","icon-scale":1,"icon-offset":[32,64],"icon-offset-units":["pixels","insetPixels"],"icon":"https://www.gstatic.com/mapspro/images/stock/503-wht-blank_maps.png"}},{"type":"Feature","geometry":{"type":"Point","coordinates":[15.872411,41.927083,0]},"properties":{"name":"6 E","styleUrl":"#icon-1899-0288D1-nodesc","label-scale":0,"icon-opacity":1,"icon-color":"#0288d1","icon-scale":1,"icon-offset":[32,64],"icon-offset-units":["pixels","insetPixels"],"icon":"https://www.gstatic.com/mapspro/images/stock/503-wht-blank_maps.png"}},{"type":"Feature","geometry":{"type":"Point","coordinates":[15.872575,41.927008,0]},"properties":{"name":"25 E","styleUrl":"#icon-1899-0288D1-nodesc","label-scale":0,"icon-opacity":1,"icon-color":"#0288d1","icon-scale":1,"icon-offset":[32,64],"icon-offset-units":["pixels","insetPixels"],"icon":"https://www.gstatic.com/mapspro/images/stock/503-wht-blank_maps.png"}},{"type":"Feature","geometry":{"type":"Point","coordinates":[15.872504,41.927023,0]},"properties":{"name":"23 E","styleUrl":"#icon-1899-0288D1-nodesc","label-scale":0,"icon-opacity":1,"icon-color":"#0288d1","icon-scale":1,"icon-offset":[32,64],"icon-offset-units":["pixels","insetPixels"],"icon":"https://www.gstatic.com/mapspro/images/stock/503-wht-blank_maps.png"}},{"type":"Feature","geometry":{"type":"Point","coordinates":[15.872448,41.92703,0]},"properties":{"name":"21 E","styleUrl":"#icon-1899-0288D1-nodesc","label-scale":0,"icon-opacity":1,"icon-color":"#0288d1","icon-scale":1,"icon-offset":[32,64],"icon-offset-units":["pixels","insetPixels"],"icon":"https://www.gstatic.com/mapspro/images/stock/503-wht-blank_maps.png"}},{"type":"Feature","geometry":{"type":"Point","coordinates":[15.872383,41.927044,0]},"properties":{"name":"19 E","styleUrl":"#icon-1899-0288D1-nodesc","label-scale":0,"icon-opacity":1,"icon-color":"#0288d1","icon-scale":1,"icon-offset":[32,64],"icon-offset-units":["pixels","insetPixels"],"icon":"https://www.gstatic.com/mapspro/images/stock/503-wht-blank_maps.png"}},{"type":"Feature","geometry":{"type":"Point","coordinates":[15.871634,41.927122,0]},"properties":{"name":"1 E","styleUrl":"#icon-1899-0288D1-nodesc","label-scale":0,"icon-opacity":1,"icon-color":"#0288d1","icon-scale":1,"icon-offset":[32,64],"icon-offset-units":["pixels","insetPixels"],"icon":"https://www.gstatic.com/mapspro/images/stock/503-wht-blank_maps.png"}},{"type":"Feature","geometry":{"type":"Point","coordinates":[15.871685,41.927118,0]},"properties":{"name":"3 E","styleUrl":"#icon-1899-0288D1-nodesc","label-scale":0,"icon-opacity":1,"icon-color":"#0288d1","icon-scale":1,"icon-offset":[32,64],"icon-offset-units":["pixels","insetPixels"],"icon":"https://www.gstatic.com/mapspro/images/stock/503-wht-blank_maps.png"}},{"type":"Feature","geometry":{"type":"Point","coordinates":[15.871808,41.927094,0]},"properties":{"name":"5 E","styleUrl":"#icon-1899-0288D1-nodesc","label-scale":0,"icon-opacity":1,"icon-color":"#0288d1","icon-scale":1,"icon-offset":[32,64],"icon-offset-units":["pixels","insetPixels"],"icon":"https://www.gstatic.com/mapspro/images/stock/503-wht-blank_maps.png"}},{"type":"Feature","geometry":{"type":"Point","coordinates":[15.871874,41.927094,0]},"properties":{"name":"7 E","styleUrl":"#icon-1899-0288D1-nodesc","label-scale":0,"icon-opacity":1,"icon-color":"#0288d1","icon-scale":1,"icon-offset":[32,64],"icon-offset-units":["pixels","insetPixels"],"icon":"https://www.gstatic.com/mapspro/images/stock/503-wht-blank_maps.png"}},{"type":"Feature","geometry":{"type":"Point","coordinates":[15.871959,41.927084,0]},"properties":{"name":"7 E","styleUrl":"#icon-1899-0288D1-nodesc","label-scale":0,"icon-opacity":1,"icon-color":"#0288d1","icon-scale":1,"icon-offset":[32,64],"icon-offset-units":["pixels","insetPixels"],"icon":"https://www.gstatic.com/mapspro/images/stock/503-wht-blank_maps.png"}},{"type":"Feature","geometry":{"type":"Point","coordinates":[15.872034,41.927078,0]},"properties":{"name":"9 E","styleUrl":"#icon-1899-0288D1-nodesc","label-scale":0,"icon-opacity":1,"icon-color":"#0288d1","icon-scale":1,"icon-offset":[32,64],"icon-offset-units":["pixels","insetPixels"],"icon":"https://www.gstatic.com/mapspro/images/stock/503-wht-blank_maps.png"}},{"type":"Feature","geometry":{"type":"Point","coordinates":[15.872096,41.927073,0]},"properties":{"name":"11 E","styleUrl":"#icon-1899-0288D1-nodesc","label-scale":0,"icon-opacity":1,"icon-color":"#0288d1","icon-scale":1,"icon-offset":[32,64],"icon-offset-units":["pixels","insetPixels"],"icon":"https://www.gstatic.com/mapspro/images/stock/503-wht-blank_maps.png"}},{"type":"Feature","geometry":{"type":"Point","coordinates":[15.872195,41.927062,0]},"properties":{"name":"13 E","styleUrl":"#icon-1899-0288D1-nodesc","label-scale":0,"icon-opacity":1,"icon-color":"#0288d1","icon-scale":1,"icon-offset":[32,64],"icon-offset-units":["pixels","insetPixels"],"icon":"https://www.gstatic.com/mapspro/images/stock/503-wht-blank_maps.png"}},{"type":"Feature","geometry":{"type":"Point","coordinates":[15.871845,41.927133,0]},"properties":{"name":"2 E","styleUrl":"#icon-1899-0288D1-nodesc","label-scale":0,"icon-opacity":1,"icon-color":"#0288d1","icon-scale":1,"icon-offset":[32,64],"icon-offset-units":["pixels","insetPixels"],"icon":"https://www.gstatic.com/mapspro/images/stock/503-wht-blank_maps.png"}},{"type":"Feature","geometry":{"type":"Point","coordinates":[15.872001,41.927109,0]},"properties":{"name":"4 E","styleUrl":"#icon-1899-0288D1-nodesc","label-scale":0,"icon-opacity":1,"icon-color":"#0288d1","icon-scale":1,"icon-offset":[32,64],"icon-offset-units":["pixels","insetPixels"],"icon":"https://www.gstatic.com/mapspro/images/stock/503-wht-blank_maps.png"}},{"type":"Feature","geometry":{"type":"Point","coordinates":[15.871412,41.926591,0]},"properties":{"name":"F 7","styleUrl":"#icon-1899-0288D1-nodesc","label-scale":0,"icon-opacity":1,"icon-color":"#0288d1","icon-scale":1,"icon-offset":[32,64],"icon-offset-units":["pixels","insetPixels"],"icon":"https://www.gstatic.com/mapspro/images/stock/503-wht-blank_maps.png"}},{"type":"Feature","geometry":{"type":"Point","coordinates":[15.871289,41.926608,0]},"properties":{"name":"F 1","styleUrl":"#icon-1899-0288D1-nodesc","label-scale":0,"icon-opacity":1,"icon-color":"#0288d1","icon-scale":1,"icon-offset":[32,64],"icon-offset-units":["pixels","insetPixels"],"icon":"https://www.gstatic.com/mapspro/images/stock/503-wht-blank_maps.png"}},{"type":"Feature","geometry":{"type":"Point","coordinates":[15.871186,41.926622,0]},"properties":{"name":"F 2","styleUrl":"#icon-1899-0288D1-nodesc","label-scale":0,"icon-opacity":1,"icon-color":"#0288d1","icon-scale":1,"icon-offset":[32,64],"icon-offset-units":["pixels","insetPixels"],"icon":"https://www.gstatic.com/mapspro/images/stock/503-wht-blank_maps.png"}},{"type":"Feature","geometry":{"type":"Point","coordinates":[15.871076,41.926632,0]},"properties":{"name":"F3","styleUrl":"#icon-1899-0288D1-nodesc","label-scale":0,"icon-opacity":1,"icon-color":"#0288d1","icon-scale":1,"icon-offset":[32,64],"icon-offset-units":["pixels","insetPixels"],"icon":"https://www.gstatic.com/mapspro/images/stock/503-wht-blank_maps.png"}},{"type":"Feature","geometry":{"type":"Point","coordinates":[15.870959,41.926644,0]},"properties":{"name":"F 4","styleUrl":"#icon-1899-0288D1-nodesc","label-scale":0,"icon-opacity":1,"icon-color":"#0288d1","icon-scale":1,"icon-offset":[32,64],"icon-offset-units":["pixels","insetPixels"],"icon":"https://www.gstatic.com/mapspro/images/stock/503-wht-blank_maps.png"}},{"type":"Feature","geometry":{"type":"Point","coordinates":[15.87082,41.926661,0]},"properties":{"name":"F 5","styleUrl":"#icon-1899-0288D1-nodesc","label-scale":0,"icon-opacity":1,"icon-color":"#0288d1","icon-scale":1,"icon-offset":[32,64],"icon-offset-units":["pixels","insetPixels"],"icon":"https://www.gstatic.com/mapspro/images/stock/503-wht-blank_maps.png"}},{"type":"Feature","geometry":{"type":"Point","coordinates":[15.870728,41.926674,0]},"properties":{"name":"F 6","styleUrl":"#icon-1899-0288D1-nodesc","label-scale":0,"icon-opacity":1,"icon-color":"#0288d1","icon-scale":1,"icon-offset":[32,64],"icon-offset-units":["pixels","insetPixels"],"icon":"https://www.gstatic.com/mapspro/images/stock/503-wht-blank_maps.png"}},{"type":"Feature","geometry":{"type":"Point","coordinates":[15.870854,41.926722,0]},"properties":{"name":"5 A","styleUrl":"#icon-1899-0288D1-nodesc","label-scale":0,"icon-opacity":1,"icon-color":"#0288d1","icon-scale":1,"icon-offset":[32,64],"icon-offset-units":["pixels","insetPixels"],"icon":"https://www.gstatic.com/mapspro/images/stock/503-wht-blank_maps.png"}},{"type":"Feature","geometry":{"type":"Point","coordinates":[15.870773,41.926736,0]},"properties":{"name":"6 A","styleUrl":"#icon-1899-0288D1-nodesc","label-scale":0,"icon-opacity":1,"icon-color":"#0288d1","icon-scale":1,"icon-offset":[32,64],"icon-offset-units":["pixels","insetPixels"],"icon":"https://www.gstatic.com/mapspro/images/stock/503-wht-blank_maps.png"}},{"type":"Feature","geometry":{"type":"Point","coordinates":[15.870693,41.926746,0]},"properties":{"name":"7 A","styleUrl":"#icon-1899-0288D1-nodesc","label-scale":0,"icon-opacity":1,"icon-color":"#0288d1","icon-scale":1,"icon-offset":[32,64],"icon-offset-units":["pixels","insetPixels"],"icon":"https://www.gstatic.com/mapspro/images/stock/503-wht-blank_maps.png"}},{"type":"Feature","geometry":{"type":"Point","coordinates":[15.870883,41.926763,0]},"properties":{"name":"19 A","styleUrl":"#icon-1899-0288D1-nodesc","label-scale":0,"icon-opacity":1,"icon-color":"#0288d1","icon-scale":1,"icon-offset":[32,64],"icon-offset-units":["pixels","insetPixels"],"icon":"https://www.gstatic.com/mapspro/images/stock/503-wht-blank_maps.png"}},{"type":"Feature","geometry":{"type":"Point","coordinates":[15.870757,41.926779,0]},"properties":{"name":"20 A","styleUrl":"#icon-1899-0288D1-nodesc","label-scale":0,"icon-opacity":1,"icon-color":"#0288d1","icon-scale":1,"icon-offset":[32,64],"icon-offset-units":["pixels","insetPixels"],"icon":"https://www.gstatic.com/mapspro/images/stock/503-wht-blank_maps.png"}},{"type":"Feature","geometry":{"type":"Point","coordinates":[15.870701,41.926795,0]},"properties":{"name":"8 A","styleUrl":"#icon-1899-0288D1-nodesc","label-scale":0,"icon-opacity":1,"icon-color":"#0288d1","icon-scale":1,"icon-offset":[32,64],"icon-offset-units":["pixels","insetPixels"],"icon":"https://www.gstatic.com/mapspro/images/stock/503-wht-blank_maps.png"}},{"type":"Feature","geometry":{"type":"Point","coordinates":[15.870704,41.92684,0]},"properties":{"name":"9 A","styleUrl":"#icon-1899-0288D1-nodesc","label-scale":0,"icon-opacity":1,"icon-color":"#0288d1","icon-scale":1,"icon-offset":[32,64],"icon-offset-units":["pixels","insetPixels"],"icon":"https://www.gstatic.com/mapspro/images/stock/503-wht-blank_maps.png"}},{"type":"Feature","geometry":{"type":"Point","coordinates":[15.870703,41.9269,0]},"properties":{"name":"10 A","styleUrl":"#icon-1899-0288D1-nodesc","label-scale":0,"icon-opacity":1,"icon-color":"#0288d1","icon-scale":1,"icon-offset":[32,64],"icon-offset-units":["pixels","insetPixels"],"icon":"https://www.gstatic.com/mapspro/images/stock/503-wht-blank_maps.png"}},{"type":"Feature","geometry":{"type":"Point","coordinates":[15.870706,41.926978,0]},"properties":{"name":"11 A","styleUrl":"#icon-1899-0288D1-nodesc","label-scale":0,"icon-opacity":1,"icon-color":"#0288d1","icon-scale":1,"icon-offset":[32,64],"icon-offset-units":["pixels","insetPixels"],"icon":"https://www.gstatic.com/mapspro/images/stock/503-wht-blank_maps.png"}},{"type":"Feature","geometry":{"type":"Point","coordinates":[15.870755,41.92693,0]},"properties":{"name":"23 A","styleUrl":"#icon-1899-0288D1-nodesc","label-scale":0,"icon-opacity":1,"icon-color":"#0288d1","icon-scale":1,"icon-offset":[32,64],"icon-offset-units":["pixels","insetPixels"],"icon":"https://www.gstatic.com/mapspro/images/stock/503-wht-blank_maps.png"}},{"type":"Feature","geometry":{"type":"Point","coordinates":[15.870748,41.92688,0]},"properties":{"name":"22 A","styleUrl":"#icon-1899-0288D1-nodesc","label-scale":0,"icon-opacity":1,"icon-color":"#0288d1","icon-scale":1,"icon-offset":[32,64],"icon-offset-units":["pixels","insetPixels"],"icon":"https://www.gstatic.com/mapspro/images/stock/503-wht-blank_maps.png"}},{"type":"Feature","geometry":{"type":"Point","coordinates":[15.870752,41.926831,0]},"properties":{"name":"21 A","styleUrl":"#icon-1899-0288D1-nodesc","label-scale":0,"icon-opacity":1,"icon-color":"#0288d1","icon-scale":1,"icon-offset":[32,64],"icon-offset-units":["pixels","insetPixels"],"icon":"https://www.gstatic.com/mapspro/images/stock/503-wht-blank_maps.png"}},{"type":"Feature","geometry":{"type":"Point","coordinates":[15.870891,41.926919,0]},"properties":{"name":"16 A","styleUrl":"#icon-1899-0288D1-nodesc","label-scale":0,"icon-opacity":1,"icon-color":"#0288d1","icon-scale":1,"icon-offset":[32,64],"icon-offset-units":["pixels","insetPixels"],"icon":"https://www.gstatic.com/mapspro/images/stock/503-wht-blank_maps.png"}},{"type":"Feature","geometry":{"type":"Point","coordinates":[15.87089,41.926869,0]},"properties":{"name":"17 A","styleUrl":"#icon-1899-0288D1-nodesc","label-scale":0,"icon-opacity":1,"icon-color":"#0288d1","icon-scale":1,"icon-offset":[32,64],"icon-offset-units":["pixels","insetPixels"],"icon":"https://www.gstatic.com/mapspro/images/stock/503-wht-blank_maps.png"}},{"type":"Feature","geometry":{"type":"Point","coordinates":[15.870892,41.926817,0]},"properties":{"name":"18 A","styleUrl":"#icon-1899-0288D1-nodesc","label-scale":0,"icon-opacity":1,"icon-color":"#0288d1","icon-scale":1,"icon-offset":[32,64],"icon-offset-units":["pixels","insetPixels"],"icon":"https://www.gstatic.com/mapspro/images/stock/503-wht-blank_maps.png"}},{"type":"Feature","geometry":{"type":"Point","coordinates":[15.870769,41.926994,0]},"properties":{"name":"12 A","styleUrl":"#icon-1899-0288D1-nodesc","label-scale":0,"icon-opacity":1,"icon-color":"#0288d1","icon-scale":1,"icon-offset":[32,64],"icon-offset-units":["pixels","insetPixels"],"icon":"https://www.gstatic.com/mapspro/images/stock/503-wht-blank_maps.png"}},{"type":"Feature","geometry":{"type":"Point","coordinates":[15.87083,41.926983,0]},"properties":{"name":"13 A","styleUrl":"#icon-1899-0288D1-nodesc","label-scale":0,"icon-opacity":1,"icon-color":"#0288d1","icon-scale":1,"icon-offset":[32,64],"icon-offset-units":["pixels","insetPixels"],"icon":"https://www.gstatic.com/mapspro/images/stock/503-wht-blank_maps.png"}},{"type":"Feature","geometry":{"type":"Point","coordinates":[15.870894,41.926973,0]},"properties":{"name":"14 A","styleUrl":"#icon-1899-0288D1-nodesc","label-scale":0,"icon-opacity":1,"icon-color":"#0288d1","icon-scale":1,"icon-offset":[32,64],"icon-offset-units":["pixels","insetPixels"],"icon":"https://www.gstatic.com/mapspro/images/stock/503-wht-blank_maps.png"}},{"type":"Feature","geometry":{"type":"Point","coordinates":[15.870943,41.926944,0]},"properties":{"name":"15 A","styleUrl":"#icon-1899-0288D1-nodesc","label-scale":0,"icon-opacity":1,"icon-color":"#0288d1","icon-scale":1,"icon-offset":[32,64],"icon-offset-units":["pixels","insetPixels"],"icon":"https://www.gstatic.com/mapspro/images/stock/503-wht-blank_maps.png"}},{"type":"Feature","geometry":{"type":"Point","coordinates":[15.870938,41.926816,0]},"properties":{"name":"2 A","styleUrl":"#icon-1899-0288D1-nodesc","label-scale":0,"icon-opacity":1,"icon-color":"#0288d1","icon-scale":1,"icon-offset":[32,64],"icon-offset-units":["pixels","insetPixels"],"icon":"https://www.gstatic.com/mapspro/images/stock/503-wht-blank_maps.png"}},{"type":"Feature","geometry":{"type":"Point","coordinates":[15.870931,41.926763,0]},"properties":{"name":"3 A","styleUrl":"#icon-1899-0288D1-nodesc","label-scale":0,"icon-opacity":1,"icon-color":"#0288d1","icon-scale":1,"icon-offset":[32,64],"icon-offset-units":["pixels","insetPixels"],"icon":"https://www.gstatic.com/mapspro/images/stock/503-wht-blank_maps.png"}},{"type":"Feature","geometry":{"type":"Point","coordinates":[15.870917,41.926714,0]},"properties":{"name":"4 A","styleUrl":"#icon-1899-0288D1-nodesc","label-scale":0,"icon-opacity":1,"icon-color":"#0288d1","icon-scale":1,"icon-offset":[32,64],"icon-offset-units":["pixels","insetPixels"],"icon":"https://www.gstatic.com/mapspro/images/stock/503-wht-blank_maps.png"}},{"type":"Feature","geometry":{"type":"Point","coordinates":[15.870942,41.926872,0]},"properties":{"name":"1 A","styleUrl":"#icon-1899-0288D1-nodesc","label-scale":0,"icon-opacity":1,"icon-color":"#0288d1","icon-scale":1,"icon-offset":[32,64],"icon-offset-units":["pixels","insetPixels"],"icon":"https://www.gstatic.com/mapspro/images/stock/503-wht-blank_maps.png"}},{"type":"Feature","geometry":{"type":"Point","coordinates":[15.871083,41.926814,0]},"properties":{"name":"21 B","styleUrl":"#icon-1899-0288D1-nodesc","label-scale":0,"icon-opacity":1,"icon-color":"#0288d1","icon-scale":1,"icon-offset":[32,64],"icon-offset-units":["pixels","insetPixels"],"icon":"https://www.gstatic.com/mapspro/images/stock/503-wht-blank_maps.png"}},{"type":"Feature","geometry":{"type":"Point","coordinates":[15.871076,41.926754,0]},"properties":{"name":"21 BSud","styleUrl":"#icon-1899-0288D1-nodesc","label-scale":0,"icon-opacity":1,"icon-color":"#0288d1","icon-scale":1,"icon-offset":[32,64],"icon-offset-units":["pixels","insetPixels"],"icon":"https://www.gstatic.com/mapspro/images/stock/503-wht-blank_maps.png"}},{"type":"Feature","geometry":{"type":"Point","coordinates":[15.871095,41.926862,0]},"properties":{"name":"21 BNord","styleUrl":"#icon-1899-0288D1-nodesc","label-scale":0,"icon-opacity":1,"icon-color":"#0288d1","icon-scale":1,"icon-offset":[32,64],"icon-offset-units":["pixels","insetPixels"],"icon":"https://www.gstatic.com/mapspro/images/stock/503-wht-blank_maps.png"}},{"type":"Feature","geometry":{"type":"Point","coordinates":[15.871136,41.926935,0]},"properties":{"name":"20 B","styleUrl":"#icon-1899-0288D1-nodesc","label-scale":0,"icon-opacity":1,"icon-color":"#0288d1","icon-scale":1,"icon-offset":[32,64],"icon-offset-units":["pixels","insetPixels"],"icon":"https://www.gstatic.com/mapspro/images/stock/503-wht-blank_maps.png"}},{"type":"Feature","geometry":{"type":"Point","coordinates":[15.871062,41.926944,0]},"properties":{"name":"20 BOvest","styleUrl":"#icon-1899-0288D1-nodesc","label-scale":0,"icon-opacity":1,"icon-color":"#0288d1","icon-scale":1,"icon-offset":[32,64],"icon-offset-units":["pixels","insetPixels"],"icon":"https://www.gstatic.com/mapspro/images/stock/503-wht-blank_maps.png"}},{"type":"Feature","geometry":{"type":"Point","coordinates":[15.871209,41.92693,0]},"properties":{"name":"20 BEst","styleUrl":"#icon-1899-0288D1-nodesc","label-scale":0,"icon-opacity":1,"icon-color":"#0288d1","icon-scale":1,"icon-offset":[32,64],"icon-offset-units":["pixels","insetPixels"],"icon":"https://www.gstatic.com/mapspro/images/stock/503-wht-blank_maps.png"}},{"type":"Feature","geometry":{"type":"Point","coordinates":[15.871243,41.926714,0]},"properties":{"name":"9 B","styleUrl":"#icon-1899-0288D1-nodesc","label-scale":0,"icon-opacity":1,"icon-color":"#0288d1","icon-scale":1,"icon-offset":[32,64],"icon-offset-units":["pixels","insetPixels"],"icon":"https://www.gstatic.com/mapspro/images/stock/503-wht-blank_maps.png"}},{"type":"Feature","geometry":{"type":"Point","coordinates":[15.870994,41.926869,0]},"properties":{"name":"1 B","styleUrl":"#icon-1899-0288D1-nodesc","label-scale":0,"icon-opacity":1,"icon-color":"#0288d1","icon-scale":1,"icon-offset":[32,64],"icon-offset-units":["pixels","insetPixels"],"icon":"https://www.gstatic.com/mapspro/images/stock/503-wht-blank_maps.png"}},{"type":"Feature","geometry":{"type":"Point","coordinates":[15.870991,41.926825,0]},"properties":{"name":"2 B","styleUrl":"#icon-1899-0288D1-nodesc","label-scale":0,"icon-opacity":1,"icon-color":"#0288d1","icon-scale":1,"icon-offset":[32,64],"icon-offset-units":["pixels","insetPixels"],"icon":"https://www.gstatic.com/mapspro/images/stock/503-wht-blank_maps.png"}},{"type":"Feature","geometry":{"type":"Point","coordinates":[15.870985,41.926774,0]},"properties":{"name":"3 B","styleUrl":"#icon-1899-0288D1-nodesc","label-scale":0,"icon-opacity":1,"icon-color":"#0288d1","icon-scale":1,"icon-offset":[32,64],"icon-offset-units":["pixels","insetPixels"],"icon":"https://www.gstatic.com/mapspro/images/stock/503-wht-blank_maps.png"}},{"type":"Feature","geometry":{"type":"Point","coordinates":[15.870984,41.926723,0]},"properties":{"name":"4 B","styleUrl":"#icon-1899-0288D1-nodesc","label-scale":0,"icon-opacity":1,"icon-color":"#0288d1","icon-scale":1,"icon-offset":[32,64],"icon-offset-units":["pixels","insetPixels"],"icon":"https://www.gstatic.com/mapspro/images/stock/503-wht-blank_maps.png"}},{"type":"Feature","geometry":{"type":"Point","coordinates":[15.871013,41.926695,0]},"properties":{"name":"5 B","styleUrl":"#icon-1899-0288D1-nodesc","label-scale":0,"icon-opacity":1,"icon-color":"#0288d1","icon-scale":1,"icon-offset":[32,64],"icon-offset-units":["pixels","insetPixels"],"icon":"https://www.gstatic.com/mapspro/images/stock/503-wht-blank_maps.png"}},{"type":"Feature","geometry":{"type":"Point","coordinates":[15.871062,41.926689,0]},"properties":{"name":"6 B","styleUrl":"#icon-1899-0288D1-nodesc","label-scale":0,"icon-opacity":1,"icon-color":"#0288d1","icon-scale":1,"icon-offset":[32,64],"icon-offset-units":["pixels","insetPixels"],"icon":"https://www.gstatic.com/mapspro/images/stock/503-wht-blank_maps.png"}},{"type":"Feature","geometry":{"type":"Point","coordinates":[15.871115,41.926683,0]},"properties":{"name":"7 B","styleUrl":"#icon-1899-0288D1-nodesc","label-scale":0,"icon-opacity":1,"icon-color":"#0288d1","icon-scale":1,"icon-offset":[32,64],"icon-offset-units":["pixels","insetPixels"],"icon":"https://www.gstatic.com/mapspro/images/stock/503-wht-blank_maps.png"}},{"type":"Feature","geometry":{"type":"Point","coordinates":[15.871162,41.926676,0]},"properties":{"name":"8 B","styleUrl":"#icon-1899-0288D1-nodesc","label-scale":0,"icon-opacity":1,"icon-color":"#0288d1","icon-scale":1,"icon-offset":[32,64],"icon-offset-units":["pixels","insetPixels"],"icon":"https://www.gstatic.com/mapspro/images/stock/503-wht-blank_maps.png"}},{"type":"Feature","geometry":{"type":"Point","coordinates":[15.870993,41.926948,0]},"properties":{"name":"19 B","styleUrl":"#icon-1899-0288D1-nodesc","label-scale":0,"icon-opacity":1,"icon-color":"#0288d1","icon-scale":1,"icon-offset":[32,64],"icon-offset-units":["pixels","insetPixels"],"icon":"https://www.gstatic.com/mapspro/images/stock/503-wht-blank_maps.png"}},{"type":"Feature","geometry":{"type":"Point","coordinates":[15.870989,41.926973,0]},"properties":{"name":"18 B","styleUrl":"#icon-1899-0288D1-nodesc","label-scale":0,"icon-opacity":1,"icon-color":"#0288d1","icon-scale":1,"icon-offset":[32,64],"icon-offset-units":["pixels","insetPixels"],"icon":"https://www.gstatic.com/mapspro/images/stock/503-wht-blank_maps.png"}},{"type":"Feature","geometry":{"type":"Point","coordinates":[15.870988,41.927005,0]},"properties":{"name":"17 B","styleUrl":"#icon-1899-0288D1-nodesc","label-scale":0,"icon-opacity":1,"icon-color":"#0288d1","icon-scale":1,"icon-offset":[32,64],"icon-offset-units":["pixels","insetPixels"],"icon":"https://www.gstatic.com/mapspro/images/stock/503-wht-blank_maps.png"}},{"type":"Feature","geometry":{"type":"Point","coordinates":[15.871032,41.927025,0]},"properties":{"name":"16 B","styleUrl":"#icon-1899-0288D1-nodesc","label-scale":0,"icon-opacity":1,"icon-color":"#0288d1","icon-scale":1,"icon-offset":[32,64],"icon-offset-units":["pixels","insetPixels"],"icon":"https://www.gstatic.com/mapspro/images/stock/503-wht-blank_maps.png"}},{"type":"Feature","geometry":{"type":"Point","coordinates":[15.871092,41.927018,0]},"properties":{"name":"15 B","styleUrl":"#icon-1899-0288D1-nodesc","label-scale":0,"icon-opacity":1,"icon-color":"#0288d1","icon-scale":1,"icon-offset":[32,64],"icon-offset-units":["pixels","insetPixels"],"icon":"https://www.gstatic.com/mapspro/images/stock/503-wht-blank_maps.png"}},{"type":"Feature","geometry":{"type":"Point","coordinates":[15.871155,41.927012,0]},"properties":{"name":"14 B","styleUrl":"#icon-1899-0288D1-nodesc","label-scale":0,"icon-opacity":1,"icon-color":"#0288d1","icon-scale":1,"icon-offset":[32,64],"icon-offset-units":["pixels","insetPixels"],"icon":"https://www.gstatic.com/mapspro/images/stock/503-wht-blank_maps.png"}},{"type":"Feature","geometry":{"type":"Point","coordinates":[15.871201,41.927007,0]},"properties":{"name":"13 B","styleUrl":"#icon-1899-0288D1-nodesc","label-scale":0,"icon-opacity":1,"icon-color":"#0288d1","icon-scale":1,"icon-offset":[32,64],"icon-offset-units":["pixels","insetPixels"],"icon":"https://www.gstatic.com/mapspro/images/stock/503-wht-blank_maps.png"}},{"type":"Feature","geometry":{"type":"Point","coordinates":[15.871253,41.92694,0]},"properties":{"name":"12 B","styleUrl":"#icon-1899-0288D1-nodesc","label-scale":0,"icon-opacity":1,"icon-color":"#0288d1","icon-scale":1,"icon-offset":[32,64],"icon-offset-units":["pixels","insetPixels"],"icon":"https://www.gstatic.com/mapspro/images/stock/503-wht-blank_maps.png"}},{"type":"Feature","geometry":{"type":"Point","coordinates":[15.871348,41.926962,0]},"properties":{"name":"15 B","styleUrl":"#icon-1899-0288D1-nodesc","label-scale":0,"icon-opacity":1,"icon-color":"#0288d1","icon-scale":1,"icon-offset":[32,64],"icon-offset-units":["pixels","insetPixels"],"icon":"https://www.gstatic.com/mapspro/images/stock/503-wht-blank_maps.png"}},{"type":"Feature","geometry":{"type":"Point","coordinates":[15.871347,41.926907,0]},"properties":{"name":"16 B","styleUrl":"#icon-1899-0288D1-nodesc","label-scale":0,"icon-opacity":1,"icon-color":"#0288d1","icon-scale":1,"icon-offset":[32,64],"icon-offset-units":["pixels","insetPixels"],"icon":"https://www.gstatic.com/mapspro/images/stock/503-wht-blank_maps.png"}},{"type":"Feature","geometry":{"type":"Point","coordinates":[15.871288,41.926798,0]},"properties":{"name":"10 B","styleUrl":"#icon-1899-0288D1-nodesc","label-scale":0,"icon-opacity":1,"icon-color":"#0288d1","icon-scale":1,"icon-offset":[32,64],"icon-offset-units":["pixels","insetPixels"],"icon":"https://www.gstatic.com/mapspro/images/stock/503-wht-blank_maps.png"}},{"type":"Feature","geometry":{"type":"Point","coordinates":[15.871303,41.926823,0]},"properties":{"name":"11 B","styleUrl":"#icon-1899-0288D1-nodesc","label-scale":0,"icon-opacity":1,"icon-color":"#0288d1","icon-scale":1,"icon-offset":[32,64],"icon-offset-units":["pixels","insetPixels"],"icon":"https://www.gstatic.com/mapspro/images/stock/503-wht-blank_maps.png"}},{"type":"Feature","geometry":{"type":"Point","coordinates":[15.871356,41.926814,0]},"properties":{"name":"17 C","styleUrl":"#icon-1899-0288D1-nodesc","label-scale":0,"icon-opacity":1,"icon-color":"#0288d1","icon-scale":1,"icon-offset":[32,64],"icon-offset-units":["pixels","insetPixels"],"icon":"https://www.gstatic.com/mapspro/images/stock/503-wht-blank_maps.png"}},{"type":"Feature","geometry":{"type":"Point","coordinates":[15.871341,41.926764,0]},"properties":{"name":"18 C","styleUrl":"#icon-1899-0288D1-nodesc","label-scale":0,"icon-opacity":1,"icon-color":"#0288d1","icon-scale":1,"icon-offset":[32,64],"icon-offset-units":["pixels","insetPixels"],"icon":"https://www.gstatic.com/mapspro/images/stock/503-wht-blank_maps.png"}},{"type":"Feature","geometry":{"type":"Point","coordinates":[15.87138,41.926741,0]},"properties":{"name":"19 C","styleUrl":"#icon-1899-0288D1-nodesc","label-scale":0,"icon-opacity":1,"icon-color":"#0288d1","icon-scale":1,"icon-offset":[32,64],"icon-offset-units":["pixels","insetPixels"],"icon":"https://www.gstatic.com/mapspro/images/stock/503-wht-blank_maps.png"}},{"type":"Feature","geometry":{"type":"Point","coordinates":[15.871462,41.926733,0]},"properties":{"name":"20 C","styleUrl":"#icon-1899-0288D1-nodesc","label-scale":0,"icon-opacity":1,"icon-color":"#0288d1","icon-scale":1,"icon-offset":[32,64],"icon-offset-units":["pixels","insetPixels"],"icon":"https://www.gstatic.com/mapspro/images/stock/503-wht-blank_maps.png"}},{"type":"Feature","geometry":{"type":"Point","coordinates":[15.871466,41.926808,0]},"properties":{"name":"21 C","styleUrl":"#icon-1899-0288D1-nodesc","label-scale":0,"icon-opacity":1,"icon-color":"#0288d1","icon-scale":1,"icon-offset":[32,64],"icon-offset-units":["pixels","insetPixels"],"icon":"https://www.gstatic.com/mapspro/images/stock/503-wht-blank_maps.png"}},{"type":"Feature","geometry":{"type":"Point","coordinates":[15.87147,41.926868,0]},"properties":{"name":"22 C","styleUrl":"#icon-1899-0288D1-nodesc","label-scale":0,"icon-opacity":1,"icon-color":"#0288d1","icon-scale":1,"icon-offset":[32,64],"icon-offset-units":["pixels","insetPixels"],"icon":"https://www.gstatic.com/mapspro/images/stock/503-wht-blank_maps.png"}},{"type":"Feature","geometry":{"type":"Point","coordinates":[15.871533,41.926944,0]},"properties":{"name":"San Paolo Sud","styleUrl":"#icon-1899-0288D1-nodesc","label-scale":0,"icon-opacity":1,"icon-color":"#0288d1","icon-scale":1,"icon-offset":[32,64],"icon-offset-units":["pixels","insetPixels"],"icon":"https://www.gstatic.com/mapspro/images/stock/503-wht-blank_maps.png"}},{"type":"Feature","geometry":{"type":"Point","coordinates":[15.871686,41.926979,0]},"properties":{"name":"San Paolo Est","styleUrl":"#icon-1899-0288D1-nodesc","label-scale":0,"icon-opacity":1,"icon-color":"#0288d1","icon-scale":1,"icon-offset":[32,64],"icon-offset-units":["pixels","insetPixels"],"icon":"https://www.gstatic.com/mapspro/images/stock/503-wht-blank_maps.png"}},{"type":"Feature","geometry":{"type":"Point","coordinates":[15.871654,41.926922,0]},"properties":{"name":"San Paolo Interno","styleUrl":"#icon-1899-0288D1-nodesc","label-scale":0,"icon-opacity":1,"icon-color":"#0288d1","icon-scale":1,"icon-offset":[32,64],"icon-offset-units":["pixels","insetPixels"],"icon":"https://www.gstatic.com/mapspro/images/stock/503-wht-blank_maps.png"}},{"type":"Feature","geometry":{"type":"Point","coordinates":[15.87143,41.92698,0]},"properties":{"name":"14 C Chiesa San Pietro","styleUrl":"#icon-1899-0288D1-nodesc","label-scale":0,"icon-opacity":1,"icon-color":"#0288d1","icon-scale":1,"icon-offset":[32,64],"icon-offset-units":["pixels","insetPixels"],"icon":"https://www.gstatic.com/mapspro/images/stock/503-wht-blank_maps.png"}},{"type":"Feature","geometry":{"type":"Point","coordinates":[15.871605,41.926821,0]},"properties":{"name":"8 C","styleUrl":"#icon-1899-0288D1-nodesc","label-scale":0,"icon-opacity":1,"icon-color":"#0288d1","icon-scale":1,"icon-offset":[32,64],"icon-offset-units":["pixels","insetPixels"],"icon":"https://www.gstatic.com/mapspro/images/stock/503-wht-blank_maps.png"}},{"type":"Feature","geometry":{"type":"Point","coordinates":[15.872019,41.926737,0]},"properties":{"name":"5 D","styleUrl":"#icon-1899-0288D1-nodesc","label-scale":0,"icon-opacity":1,"icon-color":"#0288d1","icon-scale":1,"icon-offset":[32,64],"icon-offset-units":["pixels","insetPixels"],"icon":"https://www.gstatic.com/mapspro/images/stock/503-wht-blank_maps.png"}},{"type":"Feature","geometry":{"type":"Point","coordinates":[15.871856,41.926753,0]},"properties":{"name":"3 D","styleUrl":"#icon-1899-0288D1-nodesc","label-scale":0,"icon-opacity":1,"icon-color":"#0288d1","icon-scale":1,"icon-offset":[32,64],"icon-offset-units":["pixels","insetPixels"],"icon":"https://www.gstatic.com/mapspro/images/stock/503-wht-blank_maps.png"}},{"type":"Feature","geometry":{"type":"Point","coordinates":[15.871789,41.926764,0]},"properties":{"name":"1 D","styleUrl":"#icon-1899-0288D1-nodesc","label-scale":0,"icon-opacity":1,"icon-color":"#0288d1","icon-scale":1,"icon-offset":[32,64],"icon-offset-units":["pixels","insetPixels"],"icon":"https://www.gstatic.com/mapspro/images/stock/503-wht-blank_maps.png"}},{"type":"Feature","geometry":{"type":"Point","coordinates":[15.871746,41.926827,0]},"properties":{"name":"2 D","styleUrl":"#icon-1899-0288D1-nodesc","label-scale":0,"icon-opacity":1,"icon-color":"#0288d1","icon-scale":1,"icon-offset":[32,64],"icon-offset-units":["pixels","insetPixels"],"icon":"https://www.gstatic.com/mapspro/images/stock/503-wht-blank_maps.png"}},{"type":"Feature","geometry":{"type":"Point","coordinates":[15.871809,41.926819,0]},"properties":{"name":"4 D","styleUrl":"#icon-1899-0288D1-nodesc","label-scale":0,"icon-opacity":1,"icon-color":"#0288d1","icon-scale":1,"icon-offset":[32,64],"icon-offset-units":["pixels","insetPixels"],"icon":"https://www.gstatic.com/mapspro/images/stock/503-wht-blank_maps.png"}},{"type":"Feature","geometry":{"type":"Point","coordinates":[15.871885,41.926807,0]},"properties":{"name":"6 D","styleUrl":"#icon-1899-0288D1-nodesc","label-scale":0,"icon-opacity":1,"icon-color":"#0288d1","icon-scale":1,"icon-offset":[32,64],"icon-offset-units":["pixels","insetPixels"],"icon":"https://www.gstatic.com/mapspro/images/stock/503-wht-blank_maps.png"}},{"type":"Feature","geometry":{"type":"Point","coordinates":[15.871727,41.926892,0]},"properties":{"name":"1DD1","styleUrl":"#icon-1899-0288D1-nodesc","label-scale":0,"icon-opacity":1,"icon-color":"#0288d1","icon-scale":1,"icon-offset":[32,64],"icon-offset-units":["pixels","insetPixels"],"icon":"https://www.gstatic.com/mapspro/images/stock/503-wht-blank_maps.png"}},{"type":"Feature","geometry":{"type":"Point","coordinates":[15.871728,41.926942,0]},"properties":{"name":"1DD3","styleUrl":"#icon-1899-0288D1-nodesc","label-scale":0,"icon-opacity":1,"icon-color":"#0288d1","icon-scale":1,"icon-offset":[32,64],"icon-offset-units":["pixels","insetPixels"],"icon":"https://www.gstatic.com/mapspro/images/stock/503-wht-blank_maps.png"}},{"type":"Feature","geometry":{"type":"Point","coordinates":[15.871732,41.927006,0]},"properties":{"name":"1DD5","styleUrl":"#icon-1899-0288D1-nodesc","label-scale":0,"icon-opacity":1,"icon-color":"#0288d1","icon-scale":1,"icon-offset":[32,64],"icon-offset-units":["pixels","insetPixels"],"icon":"https://www.gstatic.com/mapspro/images/stock/503-wht-blank_maps.png"}},{"type":"Feature","geometry":{"type":"Point","coordinates":[15.871814,41.926974,0]},"properties":{"name":"2DD7","styleUrl":"#icon-1899-0288D1-nodesc","label-scale":0,"icon-opacity":1,"icon-color":"#0288d1","icon-scale":1,"icon-offset":[32,64],"icon-offset-units":["pixels","insetPixels"],"icon":"https://www.gstatic.com/mapspro/images/stock/503-wht-blank_maps.png"}},{"type":"Feature","geometry":{"type":"Point","coordinates":[15.87193,41.926983,0]},"properties":{"name":"2DD1","styleUrl":"#icon-1899-0288D1-nodesc","label-scale":0,"icon-opacity":1,"icon-color":"#0288d1","icon-scale":1,"icon-offset":[32,64],"icon-offset-units":["pixels","insetPixels"],"icon":"https://www.gstatic.com/mapspro/images/stock/503-wht-blank_maps.png"}},{"type":"Feature","geometry":{"type":"Point","coordinates":[15.871925,41.926945,0]},"properties":{"name":"2DD3","styleUrl":"#icon-1899-0288D1-nodesc","label-scale":0,"icon-opacity":1,"icon-color":"#0288d1","icon-scale":1,"icon-offset":[32,64],"icon-offset-units":["pixels","insetPixels"],"icon":"https://www.gstatic.com/mapspro/images/stock/503-wht-blank_maps.png"}},{"type":"Feature","geometry":{"type":"Point","coordinates":[15.871909,41.926881,0]},"properties":{"name":"2DD5","styleUrl":"#icon-1899-0288D1-nodesc","label-scale":0,"icon-opacity":1,"icon-color":"#0288d1","icon-scale":1,"icon-offset":[32,64],"icon-offset-units":["pixels","insetPixels"],"icon":"https://www.gstatic.com/mapspro/images/stock/503-wht-blank_maps.png"}},{"type":"Feature","geometry":{"type":"Point","coordinates":[15.871811,41.926925,0]},"properties":{"name":"2DD9","styleUrl":"#icon-1899-0288D1-nodesc","label-scale":0,"icon-opacity":1,"icon-color":"#0288d1","icon-scale":1,"icon-offset":[32,64],"icon-offset-units":["pixels","insetPixels"],"icon":"https://www.gstatic.com/mapspro/images/stock/503-wht-blank_maps.png"}},{"type":"Feature","geometry":{"type":"Point","coordinates":[15.871714,41.927059,0]},"properties":{"name":"18D1","styleUrl":"#icon-1899-0288D1-nodesc","label-scale":0,"icon-opacity":1,"icon-color":"#0288d1","icon-scale":1,"icon-offset":[32,64],"icon-offset-units":["pixels","insetPixels"],"icon":"https://www.gstatic.com/mapspro/images/stock/503-wht-blank_maps.png"}},{"type":"Feature","geometry":{"type":"Point","coordinates":[15.871757,41.92706,0]},"properties":{"name":"20D1","styleUrl":"#icon-1899-0288D1-nodesc","label-scale":0,"icon-opacity":1,"icon-color":"#0288d1","icon-scale":1,"icon-offset":[32,64],"icon-offset-units":["pixels","insetPixels"],"icon":"https://www.gstatic.com/mapspro/images/stock/503-wht-blank_maps.png"}},{"type":"Feature","geometry":{"type":"Point","coordinates":[15.87181,41.927055,0]},"properties":{"name":"22D1","styleUrl":"#icon-1899-0288D1-nodesc","label-scale":0,"icon-opacity":1,"icon-color":"#0288d1","icon-scale":1,"icon-offset":[32,64],"icon-offset-units":["pixels","insetPixels"],"icon":"https://www.gstatic.com/mapspro/images/stock/503-wht-blank_maps.png"}},{"type":"Feature","geometry":{"type":"Point","coordinates":[15.871858,41.927043,0]},"properties":{"name":"24D1","styleUrl":"#icon-1899-0288D1-nodesc","label-scale":0,"icon-opacity":1,"icon-color":"#0288d1","icon-scale":1,"icon-offset":[32,64],"icon-offset-units":["pixels","insetPixels"],"icon":"https://www.gstatic.com/mapspro/images/stock/503-wht-blank_maps.png"}},{"type":"Feature","geometry":{"type":"Point","coordinates":[15.871915,41.927034,0]},"properties":{"name":"26D1","styleUrl":"#icon-1899-0288D1-nodesc","label-scale":0,"icon-opacity":1,"icon-color":"#0288d1","icon-scale":1,"icon-offset":[32,64],"icon-offset-units":["pixels","insetPixels"],"icon":"https://www.gstatic.com/mapspro/images/stock/503-wht-blank_maps.png"}},{"type":"Feature","geometry":{"type":"Point","coordinates":[15.871958,41.927028,0]},"properties":{"name":"28D1","styleUrl":"#icon-1899-0288D1-nodesc","label-scale":0,"icon-opacity":1,"icon-color":"#0288d1","icon-scale":1,"icon-offset":[32,64],"icon-offset-units":["pixels","insetPixels"],"icon":"https://www.gstatic.com/mapspro/images/stock/503-wht-blank_maps.png"}},{"type":"Feature","geometry":{"type":"Point","coordinates":[15.872005,41.927022,0]},"properties":{"name":"30D1","styleUrl":"#icon-1899-0288D1-nodesc","label-scale":0,"icon-opacity":1,"icon-color":"#0288d1","icon-scale":1,"icon-offset":[32,64],"icon-offset-units":["pixels","insetPixels"],"icon":"https://www.gstatic.com/mapspro/images/stock/503-wht-blank_maps.png"}},{"type":"Feature","geometry":{"type":"Point","coordinates":[15.872054,41.927014,0]},"properties":{"name":"32 D","styleUrl":"#icon-1899-0288D1-nodesc","label-scale":0,"icon-opacity":1,"icon-color":"#0288d1","icon-scale":1,"icon-offset":[32,64],"icon-offset-units":["pixels","insetPixels"],"icon":"https://www.gstatic.com/mapspro/images/stock/503-wht-blank_maps.png"}},{"type":"Feature","geometry":{"type":"Point","coordinates":[15.872107,41.927006,0]},"properties":{"name":"34 D","styleUrl":"#icon-1899-0288D1-nodesc","label-scale":0,"icon-opacity":1,"icon-color":"#0288d1","icon-scale":1,"icon-offset":[32,64],"icon-offset-units":["pixels","insetPixels"],"icon":"https://www.gstatic.com/mapspro/images/stock/503-wht-blank_maps.png"}},{"type":"Feature","geometry":{"type":"Point","coordinates":[15.872189,41.926998,0]},"properties":{"name":"36 D","styleUrl":"#icon-1899-0288D1-nodesc","label-scale":0,"icon-opacity":1,"icon-color":"#0288d1","icon-scale":1,"icon-offset":[32,64],"icon-offset-units":["pixels","insetPixels"],"icon":"https://www.gstatic.com/mapspro/images/stock/503-wht-blank_maps.png"}},{"type":"Feature","geometry":{"type":"Point","coordinates":[15.872254,41.926993,0]},"properties":{"name":"38 D","styleUrl":"#icon-1899-0288D1-nodesc","label-scale":0,"icon-opacity":1,"icon-color":"#0288d1","icon-scale":1,"icon-offset":[32,64],"icon-offset-units":["pixels","insetPixels"],"icon":"https://www.gstatic.com/mapspro/images/stock/503-wht-blank_maps.png"}},{"type":"Feature","geometry":{"type":"Point","coordinates":[15.872328,41.92705,0]},"properties":{"name":"17 E","styleUrl":"#icon-1899-0288D1-nodesc","label-scale":0,"icon-opacity":1,"icon-color":"#0288d1","icon-scale":1,"icon-offset":[32,64],"icon-offset-units":["pixels","insetPixels"],"icon":"https://www.gstatic.com/mapspro/images/stock/503-wht-blank_maps.png"}},{"type":"Feature","geometry":{"type":"Point","coordinates":[15.872314,41.926984,0]},"properties":{"name":"40 D","styleUrl":"#icon-1899-0288D1-nodesc","label-scale":0,"icon-opacity":1,"icon-color":"#0288d1","icon-scale":1,"icon-offset":[32,64],"icon-offset-units":["pixels","insetPixels"],"icon":"https://www.gstatic.com/mapspro/images/stock/503-wht-blank_maps.png"}},{"type":"Feature","geometry":{"type":"Point","coordinates":[15.872375,41.926972,0]},"properties":{"name":"42 D","styleUrl":"#icon-1899-0288D1-nodesc","label-scale":0,"icon-opacity":1,"icon-color":"#0288d1","icon-scale":1,"icon-offset":[32,64],"icon-offset-units":["pixels","insetPixels"],"icon":"https://www.gstatic.com/mapspro/images/stock/503-wht-blank_maps.png"}},{"type":"Feature","geometry":{"type":"Point","coordinates":[15.872413,41.926968,0]},"properties":{"name":"44 D","styleUrl":"#icon-1899-0288D1-nodesc","label-scale":0,"icon-opacity":1,"icon-color":"#0288d1","icon-scale":1,"icon-offset":[32,64],"icon-offset-units":["pixels","insetPixels"],"icon":"https://www.gstatic.com/mapspro/images/stock/503-wht-blank_maps.png"}},{"type":"Feature","geometry":{"type":"Point","coordinates":[15.872458,41.926965,0]},"properties":{"name":"46 D","styleUrl":"#icon-1899-0288D1-nodesc","label-scale":0,"icon-opacity":1,"icon-color":"#0288d1","icon-scale":1,"icon-offset":[32,64],"icon-offset-units":["pixels","insetPixels"],"icon":"https://www.gstatic.com/mapspro/images/stock/503-wht-blank_maps.png"}},{"type":"Feature","geometry":{"type":"Point","coordinates":[15.872514,41.926954,0]},"properties":{"name":"46 D","styleUrl":"#icon-1899-0288D1-nodesc","label-scale":0,"icon-opacity":1,"icon-color":"#0288d1","icon-scale":1,"icon-offset":[32,64],"icon-offset-units":["pixels","insetPixels"],"icon":"https://www.gstatic.com/mapspro/images/stock/503-wht-blank_maps.png"}},{"type":"Feature","geometry":{"type":"Point","coordinates":[15.872554,41.926945,0]},"properties":{"name":"48 D","styleUrl":"#icon-1899-0288D1-nodesc","label-scale":0,"icon-opacity":1,"icon-color":"#0288d1","icon-scale":1,"icon-offset":[32,64],"icon-offset-units":["pixels","insetPixels"],"icon":"https://www.gstatic.com/mapspro/images/stock/503-wht-blank_maps.png"}},{"type":"Feature","geometry":{"type":"Point","coordinates":[15.872596,41.926938,0]},"properties":{"name":"50 D","styleUrl":"#icon-1899-0288D1-nodesc","label-scale":0,"icon-opacity":1,"icon-color":"#0288d1","icon-scale":1,"icon-offset":[32,64],"icon-offset-units":["pixels","insetPixels"],"icon":"https://www.gstatic.com/mapspro/images/stock/503-wht-blank_maps.png"}},{"type":"Feature","geometry":{"type":"Point","coordinates":[15.871922,41.926561,0]},"properties":{"name":"17 D","styleUrl":"#icon-1899-0288D1-nodesc","label-scale":0,"icon-opacity":1,"icon-color":"#0288d1","icon-scale":1,"icon-offset":[32,64],"icon-offset-units":["pixels","insetPixels"],"icon":"https://www.gstatic.com/mapspro/images/stock/503-wht-blank_maps.png"}},{"type":"Feature","geometry":{"type":"Point","coordinates":[15.871983,41.926552,0]},"properties":{"name":"19 D","styleUrl":"#icon-1899-0288D1-nodesc","label-scale":0,"icon-opacity":1,"icon-color":"#0288d1","icon-scale":1,"icon-offset":[32,64],"icon-offset-units":["pixels","insetPixels"],"icon":"https://www.gstatic.com/mapspro/images/stock/503-wht-blank_maps.png"}},{"type":"Feature","geometry":{"type":"Point","coordinates":[15.871973,41.926668,0]},"properties":{"name":"2DD6","styleUrl":"#icon-1899-0288D1-nodesc","label-scale":0,"icon-opacity":1,"icon-color":"#0288d1","icon-scale":1,"icon-offset":[32,64],"icon-offset-units":["pixels","insetPixels"],"icon":"https://www.gstatic.com/mapspro/images/stock/503-wht-blank_maps.png"}},{"type":"Feature","geometry":{"type":"Point","coordinates":[15.871994,41.926609,0]},"properties":{"name":"20 D","styleUrl":"#icon-1899-0288D1-nodesc","label-scale":0,"icon-opacity":1,"icon-color":"#0288d1","icon-scale":1,"icon-offset":[32,64],"icon-offset-units":["pixels","insetPixels"],"icon":"https://www.gstatic.com/mapspro/images/stock/503-wht-blank_maps.png"}},{"type":"Feature","geometry":{"type":"Point","coordinates":[15.872049,41.92654,0]},"properties":{"name":"21 D","styleUrl":"#icon-1899-0288D1-nodesc","label-scale":0,"icon-opacity":1,"icon-color":"#0288d1","icon-scale":1,"icon-offset":[32,64],"icon-offset-units":["pixels","insetPixels"],"icon":"https://www.gstatic.com/mapspro/images/stock/503-wht-blank_maps.png"}},{"type":"Feature","geometry":{"type":"Point","coordinates":[15.872113,41.926528,0]},"properties":{"name":"23 D","styleUrl":"#icon-1899-0288D1-nodesc","label-scale":0,"icon-opacity":1,"icon-color":"#0288d1","icon-scale":1,"icon-offset":[32,64],"icon-offset-units":["pixels","insetPixels"],"icon":"https://www.gstatic.com/mapspro/images/stock/503-wht-blank_maps.png"}},{"type":"Feature","geometry":{"type":"Point","coordinates":[15.872169,41.92651,0]},"properties":{"name":"25 D","styleUrl":"#icon-1899-0288D1-nodesc","label-scale":0,"icon-opacity":1,"icon-color":"#0288d1","icon-scale":1,"icon-offset":[32,64],"icon-offset-units":["pixels","insetPixels"],"icon":"https://www.gstatic.com/mapspro/images/stock/503-wht-blank_maps.png"}},{"type":"Feature","geometry":{"type":"Point","coordinates":[15.872222,41.926505,0]},"properties":{"name":"27 D","styleUrl":"#icon-1899-0288D1-nodesc","label-scale":0,"icon-opacity":1,"icon-color":"#0288d1","icon-scale":1,"icon-offset":[32,64],"icon-offset-units":["pixels","insetPixels"],"icon":"https://www.gstatic.com/mapspro/images/stock/503-wht-blank_maps.png"}},{"type":"Feature","geometry":{"type":"Point","coordinates":[15.872285,41.926481,0]},"properties":{"name":"29 D","styleUrl":"#icon-1899-0288D1-nodesc","label-scale":0,"icon-opacity":1,"icon-color":"#0288d1","icon-scale":1,"icon-offset":[32,64],"icon-offset-units":["pixels","insetPixels"],"icon":"https://www.gstatic.com/mapspro/images/stock/503-wht-blank_maps.png"}},{"type":"Feature","geometry":{"type":"Point","coordinates":[15.872346,41.926492,0]},"properties":{"name":"31 D","styleUrl":"#icon-1899-0288D1-nodesc","label-scale":0,"icon-opacity":1,"icon-color":"#0288d1","icon-scale":1,"icon-offset":[32,64],"icon-offset-units":["pixels","insetPixels"],"icon":"https://www.gstatic.com/mapspro/images/stock/503-wht-blank_maps.png"}},{"type":"Feature","geometry":{"type":"Point","coordinates":[15.872399,41.926485,0]},"properties":{"name":"33 D","styleUrl":"#icon-1899-0288D1-nodesc","label-scale":0,"icon-opacity":1,"icon-color":"#0288d1","icon-scale":1,"icon-offset":[32,64],"icon-offset-units":["pixels","insetPixels"],"icon":"https://www.gstatic.com/mapspro/images/stock/503-wht-blank_maps.png"}},{"type":"Feature","geometry":{"type":"Point","coordinates":[15.872506,41.926449,0]},"properties":{"name":"4DD18","styleUrl":"#icon-1899-0288D1-nodesc","label-scale":0,"icon-opacity":1,"icon-color":"#0288d1","icon-scale":1,"icon-offset":[32,64],"icon-offset-units":["pixels","insetPixels"],"icon":"https://www.gstatic.com/mapspro/images/stock/503-wht-blank_maps.png"}},{"type":"Feature","geometry":{"type":"Point","coordinates":[15.872519,41.926529,0]},"properties":{"name":"4DD16","styleUrl":"#icon-1899-0288D1-nodesc","label-scale":0,"icon-opacity":1,"icon-color":"#0288d1","icon-scale":1,"icon-offset":[32,64],"icon-offset-units":["pixels","insetPixels"],"icon":"https://www.gstatic.com/mapspro/images/stock/503-wht-blank_maps.png"}},{"type":"Feature","geometry":{"type":"Point","coordinates":[15.872518,41.926612,0]},"properties":{"name":"4DD14","styleUrl":"#icon-1899-0288D1-nodesc","label-scale":0,"icon-opacity":1,"icon-color":"#0288d1","icon-scale":1,"icon-offset":[32,64],"icon-offset-units":["pixels","insetPixels"],"icon":"https://www.gstatic.com/mapspro/images/stock/503-wht-blank_maps.png"}},{"type":"Feature","geometry":{"type":"Point","coordinates":[15.872529,41.926691,0]},"properties":{"name":"4DD12","styleUrl":"#icon-1899-0288D1-nodesc","label-scale":0,"icon-opacity":1,"icon-color":"#0288d1","icon-scale":1,"icon-offset":[32,64],"icon-offset-units":["pixels","insetPixels"],"icon":"https://www.gstatic.com/mapspro/images/stock/503-wht-blank_maps.png"}},{"type":"Feature","geometry":{"type":"Point","coordinates":[15.872538,41.926762,0]},"properties":{"name":"4DD10","styleUrl":"#icon-1899-0288D1-nodesc","label-scale":0,"icon-opacity":1,"icon-color":"#0288d1","icon-scale":1,"icon-offset":[32,64],"icon-offset-units":["pixels","insetPixels"],"icon":"https://www.gstatic.com/mapspro/images/stock/503-wht-blank_maps.png"}},{"type":"Feature","geometry":{"type":"Point","coordinates":[15.872539,41.926801,0]},"properties":{"name":"4DD8","styleUrl":"#icon-1899-0288D1-nodesc","label-scale":0,"icon-opacity":1,"icon-color":"#0288d1","icon-scale":1,"icon-offset":[32,64],"icon-offset-units":["pixels","insetPixels"],"icon":"https://www.gstatic.com/mapspro/images/stock/503-wht-blank_maps.png"}},{"type":"Feature","geometry":{"type":"Point","coordinates":[15.872539,41.926845,0]},"properties":{"name":"4DD6","styleUrl":"#icon-1899-0288D1-nodesc","label-scale":0,"icon-opacity":1,"icon-color":"#0288d1","icon-scale":1,"icon-offset":[32,64],"icon-offset-units":["pixels","insetPixels"],"icon":"https://www.gstatic.com/mapspro/images/stock/503-wht-blank_maps.png"}},{"type":"Feature","geometry":{"type":"Point","coordinates":[15.872567,41.926885,0]},"properties":{"name":"4DD4","styleUrl":"#icon-1899-0288D1-nodesc","label-scale":0,"icon-opacity":1,"icon-color":"#0288d1","icon-scale":1,"icon-offset":[32,64],"icon-offset-units":["pixels","insetPixels"],"icon":"https://www.gstatic.com/mapspro/images/stock/503-wht-blank_maps.png"}},{"type":"Feature","geometry":{"type":"Point","coordinates":[15.872531,41.926892,0]},"properties":{"name":"4DD2","styleUrl":"#icon-1899-0288D1-nodesc","label-scale":0,"icon-opacity":1,"icon-color":"#0288d1","icon-scale":1,"icon-offset":[32,64],"icon-offset-units":["pixels","insetPixels"],"icon":"https://www.gstatic.com/mapspro/images/stock/503-wht-blank_maps.png"}},{"type":"Feature","geometry":{"type":"Point","coordinates":[15.872583,41.926914,0]},"properties":{"name":"25D1","styleUrl":"#icon-1899-0288D1-nodesc","label-scale":0,"icon-opacity":1,"icon-color":"#0288d1","icon-scale":1,"icon-offset":[32,64],"icon-offset-units":["pixels","insetPixels"],"icon":"https://www.gstatic.com/mapspro/images/stock/503-wht-blank_maps.png"}},{"type":"Feature","geometry":{"type":"Point","coordinates":[15.872008,41.926805,0]},"properties":{"name":"8 D","styleUrl":"#icon-1899-0288D1-nodesc","label-scale":0,"icon-opacity":1,"icon-color":"#0288d1","icon-scale":1,"icon-offset":[32,64],"icon-offset-units":["pixels","insetPixels"],"icon":"https://www.gstatic.com/mapspro/images/stock/503-wht-blank_maps.png"}},{"type":"Feature","geometry":{"type":"Point","coordinates":[15.872063,41.926991,0]},"properties":{"name":"15D1","styleUrl":"#icon-1899-0288D1-nodesc","label-scale":0,"icon-opacity":1,"icon-color":"#0288d1","icon-scale":1,"icon-offset":[32,64],"icon-offset-units":["pixels","insetPixels"],"icon":"https://www.gstatic.com/mapspro/images/stock/503-wht-blank_maps.png"}},{"type":"Feature","geometry":{"type":"Point","coordinates":[15.872125,41.926952,0]},"properties":{"name":"17D1","styleUrl":"#icon-1899-0288D1-nodesc","label-scale":0,"icon-opacity":1,"icon-color":"#0288d1","icon-scale":1,"icon-offset":[32,64],"icon-offset-units":["pixels","insetPixels"],"icon":"https://www.gstatic.com/mapspro/images/stock/503-wht-blank_maps.png"}},{"type":"Feature","geometry":{"type":"Point","coordinates":[15.872204,41.926973,0]},"properties":{"name":"19D1","styleUrl":"#icon-1899-0288D1-nodesc","label-scale":0,"icon-opacity":1,"icon-color":"#0288d1","icon-scale":1,"icon-offset":[32,64],"icon-offset-units":["pixels","insetPixels"],"icon":"https://www.gstatic.com/mapspro/images/stock/503-wht-blank_maps.png"}},{"type":"Feature","geometry":{"type":"Point","coordinates":[15.872209,41.926928,0]},"properties":{"name":"3DD1","styleUrl":"#icon-1899-0288D1-nodesc","label-scale":0,"icon-opacity":1,"icon-color":"#0288d1","icon-scale":1,"icon-offset":[32,64],"icon-offset-units":["pixels","insetPixels"],"icon":"https://www.gstatic.com/mapspro/images/stock/503-wht-blank_maps.png"}},{"type":"Feature","geometry":{"type":"Point","coordinates":[15.872075,41.926877,0]},"properties":{"name":"2DD4","styleUrl":"#icon-1899-0288D1-nodesc","label-scale":0,"icon-opacity":1,"icon-color":"#0288d1","icon-scale":1,"icon-offset":[32,64],"icon-offset-units":["pixels","insetPixels"],"icon":"https://www.gstatic.com/mapspro/images/stock/503-wht-blank_maps.png"}},{"type":"Feature","geometry":{"type":"Point","coordinates":[15.872011,41.926935,0]},"properties":{"name":"2DD2","styleUrl":"#icon-1899-0288D1-nodesc","label-scale":0,"icon-opacity":1,"icon-color":"#0288d1","icon-scale":1,"icon-offset":[32,64],"icon-offset-units":["pixels","insetPixels"],"icon":"https://www.gstatic.com/mapspro/images/stock/503-wht-blank_maps.png"}},{"type":"Feature","geometry":{"type":"Point","coordinates":[15.872077,41.926799,0]},"properties":{"name":"10 D","styleUrl":"#icon-1899-0288D1-nodesc","label-scale":0,"icon-opacity":1,"icon-color":"#0288d1","icon-scale":1,"icon-offset":[32,64],"icon-offset-units":["pixels","insetPixels"],"icon":"https://www.gstatic.com/mapspro/images/stock/503-wht-blank_maps.png"}},{"type":"Feature","geometry":{"type":"Point","coordinates":[15.872135,41.926795,0]},"properties":{"name":"12 D","styleUrl":"#icon-1899-0288D1-nodesc","label-scale":0,"icon-opacity":1,"icon-color":"#0288d1","icon-scale":1,"icon-offset":[32,64],"icon-offset-units":["pixels","insetPixels"],"icon":"https://www.gstatic.com/mapspro/images/stock/503-wht-blank_maps.png"}},{"type":"Feature","geometry":{"type":"Point","coordinates":[15.872456,41.926943,0]},"properties":{"name":"23D1","styleUrl":"#icon-1899-0288D1-nodesc","label-scale":0,"icon-opacity":1,"icon-color":"#0288d1","icon-scale":1,"icon-offset":[32,64],"icon-offset-units":["pixels","insetPixels"],"icon":"https://www.gstatic.com/mapspro/images/stock/503-wht-blank_maps.png"}},{"type":"Feature","geometry":{"type":"Point","coordinates":[15.872487,41.926873,0]},"properties":{"name":"4DD1","styleUrl":"#icon-1899-0288D1-nodesc","label-scale":0,"icon-opacity":1,"icon-color":"#0288d1","icon-scale":1,"icon-offset":[32,64],"icon-offset-units":["pixels","insetPixels"],"icon":"https://www.gstatic.com/mapspro/images/stock/503-wht-blank_maps.png"}},{"type":"Feature","geometry":{"type":"Point","coordinates":[15.872484,41.926814,0]},"properties":{"name":"18 D","styleUrl":"#icon-1899-0288D1-nodesc","label-scale":0,"icon-opacity":1,"icon-color":"#0288d1","icon-scale":1,"icon-offset":[32,64],"icon-offset-units":["pixels","insetPixels"],"icon":"https://www.gstatic.com/mapspro/images/stock/503-wht-blank_maps.png"}},{"type":"Feature","geometry":{"type":"Point","coordinates":[15.872401,41.926817,0]},"properties":{"name":"16 D","styleUrl":"#icon-1899-0288D1-nodesc","label-scale":0,"icon-opacity":1,"icon-color":"#0288d1","icon-scale":1,"icon-offset":[32,64],"icon-offset-units":["pixels","insetPixels"],"icon":"https://www.gstatic.com/mapspro/images/stock/503-wht-blank_maps.png"}},{"type":"Feature","geometry":{"type":"Point","coordinates":[15.87231,41.926955,0]},"properties":{"name":"3DD4","styleUrl":"#icon-1899-0288D1-nodesc","label-scale":0,"icon-opacity":1,"icon-color":"#0288d1","icon-scale":1,"icon-offset":[32,64],"icon-offset-units":["pixels","insetPixels"],"icon":"https://www.gstatic.com/mapspro/images/stock/503-wht-blank_maps.png"}},{"type":"Feature","geometry":{"type":"Point","coordinates":[15.8723,41.926896,0]},"properties":{"name":"3DD6","styleUrl":"#icon-1899-0288D1-nodesc","label-scale":0,"icon-opacity":1,"icon-color":"#0288d1","icon-scale":1,"icon-offset":[32,64],"icon-offset-units":["pixels","insetPixels"],"icon":"https://www.gstatic.com/mapspro/images/stock/503-wht-blank_maps.png"}},{"type":"Feature","geometry":{"type":"Point","coordinates":[15.872343,41.926826,0]},"properties":{"name":"16 D","styleUrl":"#icon-1899-0288D1-nodesc","label-scale":0,"icon-opacity":1,"icon-color":"#0288d1","icon-scale":1,"icon-offset":[32,64],"icon-offset-units":["pixels","insetPixels"],"icon":"https://www.gstatic.com/mapspro/images/stock/503-wht-blank_maps.png"}},{"type":"Feature","geometry":{"type":"Point","coordinates":[15.87228,41.926835,0]},"properties":{"name":"14 D","styleUrl":"#icon-1899-0288D1-nodesc","label-scale":0,"icon-opacity":1,"icon-color":"#0288d1","icon-scale":1,"icon-offset":[32,64],"icon-offset-units":["pixels","insetPixels"],"icon":"https://www.gstatic.com/mapspro/images/stock/503-wht-blank_maps.png"}},{"type":"Feature","geometry":{"type":"Point","coordinates":[15.872203,41.926889,0]},"properties":{"name":"3DD3","styleUrl":"#icon-1899-0288D1-nodesc","label-scale":0,"icon-opacity":1,"icon-color":"#0288d1","icon-scale":1,"icon-offset":[32,64],"icon-offset-units":["pixels","insetPixels"],"icon":"https://www.gstatic.com/mapspro/images/stock/503-wht-blank_maps.png"}},{"type":"Feature","geometry":{"type":"Point","coordinates":[15.872196,41.926856,0]},"properties":{"name":"12 D","styleUrl":"#icon-1899-0288D1-nodesc","label-scale":0,"icon-opacity":1,"icon-color":"#0288d1","icon-scale":1,"icon-offset":[32,64],"icon-offset-units":["pixels","insetPixels"],"icon":"https://www.gstatic.com/mapspro/images/stock/503-wht-blank_maps.png"}},{"type":"Feature","geometry":{"type":"Point","coordinates":[15.872119,41.926725,0]},"properties":{"name":"7 D","styleUrl":"#icon-1899-0288D1-nodesc","label-scale":0,"icon-opacity":1,"icon-color":"#0288d1","icon-scale":1,"icon-offset":[32,64],"icon-offset-units":["pixels","insetPixels"],"icon":"https://www.gstatic.com/mapspro/images/stock/503-wht-blank_maps.png"}},{"type":"Feature","geometry":{"type":"Point","coordinates":[15.872192,41.926721,0]},"properties":{"name":"9 D","styleUrl":"#icon-1899-0288D1-nodesc","label-scale":0,"icon-opacity":1,"icon-color":"#0288d1","icon-scale":1,"icon-offset":[32,64],"icon-offset-units":["pixels","insetPixels"],"icon":"https://www.gstatic.com/mapspro/images/stock/503-wht-blank_maps.png"}},{"type":"Feature","geometry":{"type":"Point","coordinates":[15.872217,41.926632,0]},"properties":{"name":"3DD5","styleUrl":"#icon-1899-0288D1-nodesc","label-scale":0,"icon-opacity":1,"icon-color":"#0288d1","icon-scale":1,"icon-offset":[32,64],"icon-offset-units":["pixels","insetPixels"],"icon":"https://www.gstatic.com/mapspro/images/stock/503-wht-blank_maps.png"}},{"type":"Feature","geometry":{"type":"Point","coordinates":[15.872205,41.926555,0]},"properties":{"name":"24 D","styleUrl":"#icon-1899-0288D1-nodesc","label-scale":0,"icon-opacity":1,"icon-color":"#0288d1","icon-scale":1,"icon-offset":[32,64],"icon-offset-units":["pixels","insetPixels"],"icon":"https://www.gstatic.com/mapspro/images/stock/503-wht-blank_maps.png"}},{"type":"Feature","geometry":{"type":"Point","coordinates":[15.872104,41.926595,0]},"properties":{"name":"22 D","styleUrl":"#icon-1899-0288D1-nodesc","label-scale":0,"icon-opacity":1,"icon-color":"#0288d1","icon-scale":1,"icon-offset":[32,64],"icon-offset-units":["pixels","insetPixels"],"icon":"https://www.gstatic.com/mapspro/images/stock/503-wht-blank_maps.png"}},{"type":"Feature","geometry":{"type":"Point","coordinates":[15.872304,41.926688,0]},"properties":{"name":"11 D","styleUrl":"#icon-1899-0288D1-nodesc","label-scale":0,"icon-opacity":1,"icon-color":"#0288d1","icon-scale":1,"icon-offset":[32,64],"icon-offset-units":["pixels","insetPixels"],"icon":"https://www.gstatic.com/mapspro/images/stock/503-wht-blank_maps.png"}},{"type":"Feature","geometry":{"type":"Point","coordinates":[15.872368,41.926679,0]},"properties":{"name":"13 D","styleUrl":"#icon-1899-0288D1-nodesc","label-scale":0,"icon-opacity":1,"icon-color":"#0288d1","icon-scale":1,"icon-offset":[32,64],"icon-offset-units":["pixels","insetPixels"],"icon":"https://www.gstatic.com/mapspro/images/stock/503-wht-blank_maps.png"}},{"type":"Feature","geometry":{"type":"Point","coordinates":[15.872433,41.926673,0]},"properties":{"name":"15 D","styleUrl":"#icon-1899-0288D1-nodesc","label-scale":0,"icon-opacity":1,"icon-color":"#0288d1","icon-scale":1,"icon-offset":[32,64],"icon-offset-units":["pixels","insetPixels"],"icon":"https://www.gstatic.com/mapspro/images/stock/503-wht-blank_maps.png"}},{"type":"Feature","geometry":{"type":"Point","coordinates":[15.872293,41.926609,0]},"properties":{"name":"3DD8","styleUrl":"#icon-1899-0288D1-nodesc","label-scale":0,"icon-opacity":1,"icon-color":"#0288d1","icon-scale":1,"icon-offset":[32,64],"icon-offset-units":["pixels","insetPixels"],"icon":"https://www.gstatic.com/mapspro/images/stock/503-wht-blank_maps.png"}},{"type":"Feature","geometry":{"type":"Point","coordinates":[15.872293,41.926542,0]},"properties":{"name":"26 D","styleUrl":"#icon-1899-0288D1-nodesc","label-scale":0,"icon-opacity":1,"icon-color":"#0288d1","icon-scale":1,"icon-offset":[32,64],"icon-offset-units":["pixels","insetPixels"],"icon":"https://www.gstatic.com/mapspro/images/stock/503-wht-blank_maps.png"}},{"type":"Feature","geometry":{"type":"Point","coordinates":[15.872349,41.926536,0]},"properties":{"name":"28 D","styleUrl":"#icon-1899-0288D1-nodesc","label-scale":0,"icon-opacity":1,"icon-color":"#0288d1","icon-scale":1,"icon-offset":[32,64],"icon-offset-units":["pixels","insetPixels"],"icon":"https://www.gstatic.com/mapspro/images/stock/503-wht-blank_maps.png"}},{"type":"Feature","geometry":{"type":"Point","coordinates":[15.872415,41.926529,0]},"properties":{"name":"30 D","styleUrl":"#icon-1899-0288D1-nodesc","label-scale":0,"icon-opacity":1,"icon-color":"#0288d1","icon-scale":1,"icon-offset":[32,64],"icon-offset-units":["pixels","insetPixels"],"icon":"https://www.gstatic.com/mapspro/images/stock/503-wht-blank_maps.png"}},{"type":"Feature","geometry":{"type":"Point","coordinates":[15.872428,41.926585,0]},"properties":{"name":"3DD9","styleUrl":"#icon-1899-0288D1-nodesc","label-scale":0,"icon-opacity":1,"icon-color":"#0288d1","icon-scale":1,"icon-offset":[32,64],"icon-offset-units":["pixels","insetPixels"],"icon":"https://www.gstatic.com/mapspro/images/stock/503-wht-blank_maps.png"}},{"type":"Feature","geometry":{"type":"Point","coordinates":[15.872698,41.926885,0]},"properties":{"name":"1 G","styleUrl":"#icon-1899-0288D1-nodesc","label-scale":0,"icon-opacity":1,"icon-color":"#0288d1","icon-scale":1,"icon-offset":[32,64],"icon-offset-units":["pixels","insetPixels"],"icon":"https://www.gstatic.com/mapspro/images/stock/503-wht-blank_maps.png"}},{"type":"Feature","geometry":{"type":"Point","coordinates":[15.872779,41.926872,0]},"properties":{"name":"2 G","styleUrl":"#icon-1899-0288D1-nodesc","label-scale":0,"icon-opacity":1,"icon-color":"#0288d1","icon-scale":1,"icon-offset":[32,64],"icon-offset-units":["pixels","insetPixels"],"icon":"https://www.gstatic.com/mapspro/images/stock/503-wht-blank_maps.png"}},{"type":"Feature","geometry":{"type":"Point","coordinates":[15.872747,41.926802,0]},"properties":{"name":"3 G","styleUrl":"#icon-1899-0288D1-nodesc","label-scale":0,"icon-opacity":1,"icon-color":"#0288d1","icon-scale":1,"icon-offset":[32,64],"icon-offset-units":["pixels","insetPixels"],"icon":"https://www.gstatic.com/mapspro/images/stock/503-wht-blank_maps.png"}},{"type":"Feature","geometry":{"type":"LineString","coordinates":[[15.871584,41.926573,0],[15.871598,41.926695,0],[15.871723,41.926797,0],[15.87196,41.926763,0],[15.871941,41.926596,0],[15.872461,41.926497,0],[15.872488,41.926698,0],[15.872515,41.926936,0],[15.872288,41.926966,0],[15.872264,41.926725,0],[15.872469,41.926699,0],[15.872491,41.926696,0]]},"properties":{"name":"Linea 234","styleUrl":"#line-0288D1-1200-nodesc","stroke-opacity":1,"stroke":"#0288d1","stroke-width":1.2}},{"type":"Feature","geometry":{"type":"LineString","coordinates":[[15.87196,41.926763,0],[15.872262,41.926732,0]]},"properties":{"name":"Linea 235","styleUrl":"#line-0288D1-1200-nodesc","stroke-opacity":1,"stroke":"#0288d1","stroke-width":1.2}},{"type":"Feature","geometry":{"type":"LineString","coordinates":[[15.871598,41.926695,0],[15.871511,41.92682,0],[15.871368,41.92684,0],[15.871047,41.926885,0]]},"properties":{"name":"Linea 236","styleUrl":"#line-0288D1-1200-nodesc","stroke-opacity":1,"stroke":"#0288d1","stroke-width":1.2}}]}