<?xml version="1.0" encoding="UTF-8"?>
<kml xmlns="http://www.opengis.net/kml/2.2">
  <Document>
    <name>Mappa senza titolo</name>
    <description/>
    <Style id="icon-1899-0288D1-nodesc-normal">
      <IconStyle>
        <color>ffd18802</color>
        <scale>1</scale>
        <Icon>
          <href>https://www.gstatic.com/mapspro/images/stock/503-wht-blank_maps.png</href>
        </Icon>
        <hotSpot x="32" xunits="pixels" y="64" yunits="insetPixels"/>
      </IconStyle>
      <LabelStyle>
        <scale>0</scale>
      </LabelStyle>
      <BalloonStyle>
        <text><![CDATA[<h3>$[name]</h3>]]></text>
      </BalloonStyle>
    </Style>
    <Style id="icon-1899-0288D1-nodesc-highlight">
      <IconStyle>
        <color>ffd18802</color>
        <scale>1</scale>
        <Icon>
          <href>https://www.gstatic.com/mapspro/images/stock/503-wht-blank_maps.png</href>
        </Icon>
        <hotSpot x="32" xunits="pixels" y="64" yunits="insetPixels"/>
      </IconStyle>
      <LabelStyle>
        <scale>1</scale>
      </LabelStyle>
      <BalloonStyle>
        <text><![CDATA[<h3>$[name]</h3>]]></text>
      </BalloonStyle>
    </Style>
    <StyleMap id="icon-1899-0288D1-nodesc">
      <Pair>
        <key>normal</key>
        <styleUrl>#icon-1899-0288D1-nodesc-normal</styleUrl>
      </Pair>
      <Pair>
        <key>highlight</key>
        <styleUrl>#icon-1899-0288D1-nodesc-highlight</styleUrl>
      </Pair>
    </StyleMap>
    <Style id="line-0288D1-1200-nodesc-normal">
      <LineStyle>
        <color>ffd18802</color>
        <width>1.2</width>
      </LineStyle>
      <BalloonStyle>
        <text><![CDATA[<h3>$[name]</h3>]]></text>
      </BalloonStyle>
    </Style>
    <Style id="line-0288D1-1200-nodesc-highlight">
      <LineStyle>
        <color>ffd18802</color>
        <width>1.8</width>
      </LineStyle>
      <BalloonStyle>
        <text><![CDATA[<h3>$[name]</h3>]]></text>
      </BalloonStyle>
    </Style>
    <StyleMap id="line-0288D1-1200-nodesc">
      <Pair>
        <key>normal</key>
        <styleUrl>#line-0288D1-1200-nodesc-normal</styleUrl>
      </Pair>
      <Pair>
        <key>highlight</key>
        <styleUrl>#line-0288D1-1200-nodesc-highlight</styleUrl>
      </Pair>
    </StyleMap>
    <Folder>
      <name>Livello senza titolo</name>
      <Placemark>
        <name>CUSTODE</name>
        <styleUrl>#icon-1899-0288D1-nodesc</styleUrl>
        <Point>
          <coordinates>
            15.8716244,41.9265906,0
          </coordinates>
        </Point>
      </Placemark>
      <Placemark>
        <name>FUNERAL HOME</name>
        <styleUrl>#icon-1899-0288D1-nodesc</styleUrl>
        <Point>
          <coordinates>
            15.8716786,41.9265881,0
          </coordinates>
        </Point>
      </Placemark>
      <Placemark>
        <name>BAGNO</name>
        <styleUrl>#icon-1899-0288D1-nodesc</styleUrl>
        <Point>
          <coordinates>
            15.8715334,41.9265905,0
          </coordinates>
        </Point>
      </Placemark>
      <Placemark>
        <name>OBITORIO</name>
        <styleUrl>#icon-1899-0288D1-nodesc</styleUrl>
        <Point>
          <coordinates>
            15.8715344,41.9266377,0
          </coordinates>
        </Point>
      </Placemark>
      <Placemark>
        <name>CHIESA CROCEFISSO</name>
        <styleUrl>#icon-1899-0288D1-nodesc</styleUrl>
        <Point>
          <coordinates>
            15.8717588,41.9266616,0
          </coordinates>
        </Point>
      </Placemark>
      <Placemark>
        <name>16 F</name>
        <styleUrl>#icon-1899-0288D1-nodesc</styleUrl>
        <Point>
          <coordinates>
            15.8732566,41.9272609,0
          </coordinates>
        </Point>
      </Placemark>
      <Placemark>
        <name>15 F</name>
        <styleUrl>#icon-1899-0288D1-nodesc</styleUrl>
        <Point>
          <coordinates>
            15.8731724,41.9272141,0
          </coordinates>
        </Point>
      </Placemark>
      <Placemark>
        <name>14 F</name>
        <styleUrl>#icon-1899-0288D1-nodesc</styleUrl>
        <Point>
          <coordinates>
            15.8731221,41.9271948,0
          </coordinates>
        </Point>
      </Placemark>
      <Placemark>
        <name>13 F</name>
        <styleUrl>#icon-1899-0288D1-nodesc</styleUrl>
        <Point>
          <coordinates>
            15.8730658,41.9271859,0
          </coordinates>
        </Point>
      </Placemark>
      <Placemark>
        <name>12 F</name>
        <styleUrl>#icon-1899-0288D1-nodesc</styleUrl>
        <Point>
          <coordinates>
            15.8730406,41.9272359,0
          </coordinates>
        </Point>
      </Placemark>
      <Placemark>
        <name>31 F</name>
        <styleUrl>#icon-1899-0288D1-nodesc</styleUrl>
        <Point>
          <coordinates>
            15.8729785,41.9272196,0
          </coordinates>
        </Point>
      </Placemark>
      <Placemark>
        <name>11 F</name>
        <styleUrl>#icon-1899-0288D1-nodesc</styleUrl>
        <Point>
          <coordinates>
            15.8729218,41.9272026,0
          </coordinates>
        </Point>
      </Placemark>
      <Placemark>
        <name>10 F</name>
        <styleUrl>#icon-1899-0288D1-nodesc</styleUrl>
        <Point>
          <coordinates>
            15.8728531,41.9271925,0
          </coordinates>
        </Point>
      </Placemark>
      <Placemark>
        <name>30 F</name>
        <styleUrl>#icon-1899-0288D1-nodesc</styleUrl>
        <Point>
          <coordinates>
            15.8729053,41.9271402,0
          </coordinates>
        </Point>
      </Placemark>
      <Placemark>
        <name>18 F</name>
        <styleUrl>#icon-1899-0288D1-nodesc</styleUrl>
        <Point>
          <coordinates>
            15.8731804,41.9271643,0
          </coordinates>
        </Point>
      </Placemark>
      <Placemark>
        <name>17 F</name>
        <styleUrl>#icon-1899-0288D1-nodesc</styleUrl>
        <Point>
          <coordinates>
            15.8731017,41.9271511,0
          </coordinates>
        </Point>
      </Placemark>
      <Placemark>
        <name>28 F</name>
        <styleUrl>#icon-1899-0288D1-nodesc</styleUrl>
        <Point>
          <coordinates>
            15.8730764,41.9271028,0
          </coordinates>
        </Point>
      </Placemark>
      <Placemark>
        <name>19 F</name>
        <styleUrl>#icon-1899-0288D1-nodesc</styleUrl>
        <Point>
          <coordinates>
            15.8732296,41.9271108,0
          </coordinates>
        </Point>
      </Placemark>
      <Placemark>
        <name>20 F</name>
        <styleUrl>#icon-1899-0288D1-nodesc</styleUrl>
        <Point>
          <coordinates>
            15.8732167,41.9270524,0
          </coordinates>
        </Point>
      </Placemark>
      <Placemark>
        <name>21 F</name>
        <styleUrl>#icon-1899-0288D1-nodesc</styleUrl>
        <Point>
          <coordinates>
            15.8731625,41.9269956,0
          </coordinates>
        </Point>
      </Placemark>
      <Placemark>
        <name>22 F</name>
        <styleUrl>#icon-1899-0288D1-nodesc</styleUrl>
        <Point>
          <coordinates>
            15.8731015,41.9269774,0
          </coordinates>
        </Point>
      </Placemark>
      <Placemark>
        <name>23 F</name>
        <styleUrl>#icon-1899-0288D1-nodesc</styleUrl>
        <Point>
          <coordinates>
            15.8730377,41.9269664,0
          </coordinates>
        </Point>
      </Placemark>
      <Placemark>
        <name>27 F</name>
        <styleUrl>#icon-1899-0288D1-nodesc</styleUrl>
        <Point>
          <coordinates>
            15.8730447,41.9270737,0
          </coordinates>
        </Point>
      </Placemark>
      <Placemark>
        <name>24 F</name>
        <styleUrl>#icon-1899-0288D1-nodesc</styleUrl>
        <Point>
          <coordinates>
            15.872962,41.9269736,0
          </coordinates>
        </Point>
      </Placemark>
      <Placemark>
        <name>25 F</name>
        <styleUrl>#icon-1899-0288D1-nodesc</styleUrl>
        <Point>
          <coordinates>
            15.8728999,41.9270066,0
          </coordinates>
        </Point>
      </Placemark>
      <Placemark>
        <name>26 F</name>
        <styleUrl>#icon-1899-0288D1-nodesc</styleUrl>
        <Point>
          <coordinates>
            15.8729857,41.9270483,0
          </coordinates>
        </Point>
      </Placemark>
      <Placemark>
        <name>3 G</name>
        <styleUrl>#icon-1899-0288D1-nodesc</styleUrl>
        <Point>
          <coordinates>
            15.8730239,41.9269303,0
          </coordinates>
        </Point>
      </Placemark>
      <Placemark>
        <name>4 G</name>
        <styleUrl>#icon-1899-0288D1-nodesc</styleUrl>
        <Point>
          <coordinates>
            15.873088,41.9269356,0
          </coordinates>
        </Point>
      </Placemark>
      <Placemark>
        <name>5 G</name>
        <styleUrl>#icon-1899-0288D1-nodesc</styleUrl>
        <Point>
          <coordinates>
            15.87315,41.9269532,0
          </coordinates>
        </Point>
      </Placemark>
      <Placemark>
        <name>6 G</name>
        <styleUrl>#icon-1899-0288D1-nodesc</styleUrl>
        <Point>
          <coordinates>
            15.8732048,41.9269806,0
          </coordinates>
        </Point>
      </Placemark>
      <Placemark>
        <name>15 G</name>
        <styleUrl>#icon-1899-0288D1-nodesc</styleUrl>
        <Point>
          <coordinates>
            15.8730213,41.9268655,0
          </coordinates>
        </Point>
      </Placemark>
      <Placemark>
        <name>14 G</name>
        <styleUrl>#icon-1899-0288D1-nodesc</styleUrl>
        <Point>
          <coordinates>
            15.8731101,41.9268623,0
          </coordinates>
        </Point>
      </Placemark>
      <Placemark>
        <name>12 G</name>
        <styleUrl>#icon-1899-0288D1-nodesc</styleUrl>
        <Point>
          <coordinates>
            15.8731888,41.9268801,0
          </coordinates>
        </Point>
      </Placemark>
      <Placemark>
        <name>11 G</name>
        <styleUrl>#icon-1899-0288D1-nodesc</styleUrl>
        <Point>
          <coordinates>
            15.8731526,41.926834,0
          </coordinates>
        </Point>
      </Placemark>
      <Placemark>
        <name>10 G</name>
        <styleUrl>#icon-1899-0288D1-nodesc</styleUrl>
        <Point>
          <coordinates>
            15.8730862,41.9268237,0
          </coordinates>
        </Point>
      </Placemark>
      <Placemark>
        <name>21 G</name>
        <styleUrl>#icon-1899-0288D1-nodesc</styleUrl>
        <Point>
          <coordinates>
            15.8729864,41.9268018,0
          </coordinates>
        </Point>
      </Placemark>
      <Placemark>
        <name>9 G</name>
        <styleUrl>#icon-1899-0288D1-nodesc</styleUrl>
        <Point>
          <coordinates>
            15.8730167,41.9268245,0
          </coordinates>
        </Point>
      </Placemark>
      <Placemark>
        <name>20 G</name>
        <styleUrl>#icon-1899-0288D1-nodesc</styleUrl>
        <Point>
          <coordinates>
            15.8729592,41.9267687,0
          </coordinates>
        </Point>
      </Placemark>
      <Placemark>
        <name>19 G</name>
        <styleUrl>#icon-1899-0288D1-nodesc</styleUrl>
        <Point>
          <coordinates>
            15.8729367,41.9267383,0
          </coordinates>
        </Point>
      </Placemark>
      <Placemark>
        <name>18 G</name>
        <styleUrl>#icon-1899-0288D1-nodesc</styleUrl>
        <Point>
          <coordinates>
            15.8728883,41.9267751,0
          </coordinates>
        </Point>
      </Placemark>
      <Placemark>
        <name>16 G</name>
        <styleUrl>#icon-1899-0288D1-nodesc</styleUrl>
        <Point>
          <coordinates>
            15.8728928,41.9268231,0
          </coordinates>
        </Point>
      </Placemark>
      <Placemark>
        <name>17 G</name>
        <styleUrl>#icon-1899-0288D1-nodesc</styleUrl>
        <Point>
          <coordinates>
            15.8728325,41.926835,0
          </coordinates>
        </Point>
      </Placemark>
      <Placemark>
        <name>1 G</name>
        <styleUrl>#icon-1899-0288D1-nodesc</styleUrl>
        <Point>
          <coordinates>
            15.8728426,41.9269135,0
          </coordinates>
        </Point>
      </Placemark>
      <Placemark>
        <name>2 G</name>
        <styleUrl>#icon-1899-0288D1-nodesc</styleUrl>
        <Point>
          <coordinates>
            15.8728842,41.9269592,0
          </coordinates>
        </Point>
      </Placemark>
      <Placemark>
        <name>8 G</name>
        <styleUrl>#icon-1899-0288D1-nodesc</styleUrl>
        <Point>
          <coordinates>
            15.8729437,41.92687,0
          </coordinates>
        </Point>
      </Placemark>
      <Placemark>
        <name>7 G</name>
        <styleUrl>#icon-1899-0288D1-nodesc</styleUrl>
        <Point>
          <coordinates>
            15.872962,41.9269263,0
          </coordinates>
        </Point>
      </Placemark>
      <Placemark>
        <name>13 G</name>
        <styleUrl>#icon-1899-0288D1-nodesc</styleUrl>
        <Point>
          <coordinates>
            15.8731348,41.9268037,0
          </coordinates>
        </Point>
      </Placemark>
      <Placemark>
        <name>2 F</name>
        <styleUrl>#icon-1899-0288D1-nodesc</styleUrl>
        <Point>
          <coordinates>
            15.8728513,41.9269886,0
          </coordinates>
        </Point>
      </Placemark>
      <Placemark>
        <name>3 F</name>
        <styleUrl>#icon-1899-0288D1-nodesc</styleUrl>
        <Point>
          <coordinates>
            15.8728051,41.9270322,0
          </coordinates>
        </Point>
      </Placemark>
      <Placemark>
        <name>4 F</name>
        <styleUrl>#icon-1899-0288D1-nodesc</styleUrl>
        <Point>
          <coordinates>
            15.8727205,41.9270397,0
          </coordinates>
        </Point>
      </Placemark>
      <Placemark>
        <name>1 F</name>
        <styleUrl>#icon-1899-0288D1-nodesc</styleUrl>
        <Point>
          <coordinates>
            15.8727896,41.9269684,0
          </coordinates>
        </Point>
      </Placemark>
      <Placemark>
        <name>5 F</name>
        <styleUrl>#icon-1899-0288D1-nodesc</styleUrl>
        <Point>
          <coordinates>
            15.8727256,41.9270687,0
          </coordinates>
        </Point>
      </Placemark>
      <Placemark>
        <name>5 F</name>
        <styleUrl>#icon-1899-0288D1-nodesc</styleUrl>
        <Point>
          <coordinates>
            15.8727897,41.9270819,0
          </coordinates>
        </Point>
      </Placemark>
      <Placemark>
        <name>7 F</name>
        <styleUrl>#icon-1899-0288D1-nodesc</styleUrl>
        <Point>
          <coordinates>
            15.8728476,41.9271089,0
          </coordinates>
        </Point>
      </Placemark>
      <Placemark>
        <name>29 F</name>
        <styleUrl>#icon-1899-0288D1-nodesc</styleUrl>
        <Point>
          <coordinates>
            15.8727737,41.9271988,0
          </coordinates>
        </Point>
      </Placemark>
      <Placemark>
        <name>16 E</name>
        <styleUrl>#icon-1899-0288D1-nodesc</styleUrl>
        <Point>
          <coordinates>
            15.872717,41.9271847,0
          </coordinates>
        </Point>
      </Placemark>
      <Placemark>
        <name>18 E</name>
        <styleUrl>#icon-1899-0288D1-nodesc</styleUrl>
        <Point>
          <coordinates>
            15.8726861,41.9272242,0
          </coordinates>
        </Point>
      </Placemark>
      <Placemark>
        <name>14 E</name>
        <styleUrl>#icon-1899-0288D1-nodesc</styleUrl>
        <Point>
          <coordinates>
            15.8726612,41.9271477,0
          </coordinates>
        </Point>
      </Placemark>
      <Placemark>
        <name>12 E</name>
        <styleUrl>#icon-1899-0288D1-nodesc</styleUrl>
        <Point>
          <coordinates>
            15.8726046,41.9271255,0
          </coordinates>
        </Point>
      </Placemark>
      <Placemark>
        <name>10 E</name>
        <styleUrl>#icon-1899-0288D1-nodesc</styleUrl>
        <Point>
          <coordinates>
            15.8725538,41.9270887,0
          </coordinates>
        </Point>
      </Placemark>
      <Placemark>
        <name>8 E</name>
        <styleUrl>#icon-1899-0288D1-nodesc</styleUrl>
        <Point>
          <coordinates>
            15.8725074,41.9270702,0
          </coordinates>
        </Point>
      </Placemark>
      <Placemark>
        <name>6 E</name>
        <styleUrl>#icon-1899-0288D1-nodesc</styleUrl>
        <Point>
          <coordinates>
            15.8724114,41.9270825,0
          </coordinates>
        </Point>
      </Placemark>
      <Placemark>
        <name>25 E</name>
        <styleUrl>#icon-1899-0288D1-nodesc</styleUrl>
        <Point>
          <coordinates>
            15.8725752,41.9270083,0
          </coordinates>
        </Point>
      </Placemark>
      <Placemark>
        <name>23 E</name>
        <styleUrl>#icon-1899-0288D1-nodesc</styleUrl>
        <Point>
          <coordinates>
            15.8725043,41.9270229,0
          </coordinates>
        </Point>
      </Placemark>
      <Placemark>
        <name>21 E</name>
        <styleUrl>#icon-1899-0288D1-nodesc</styleUrl>
        <Point>
          <coordinates>
            15.8724481,41.9270297,0
          </coordinates>
        </Point>
      </Placemark>
      <Placemark>
        <name>19 E</name>
        <styleUrl>#icon-1899-0288D1-nodesc</styleUrl>
        <Point>
          <coordinates>
            15.8723832,41.9270441,0
          </coordinates>
        </Point>
      </Placemark>
      <Placemark>
        <name>1 E</name>
        <styleUrl>#icon-1899-0288D1-nodesc</styleUrl>
        <Point>
          <coordinates>
            15.8716337,41.9271221,0
          </coordinates>
        </Point>
      </Placemark>
      <Placemark>
        <name>3 E</name>
        <styleUrl>#icon-1899-0288D1-nodesc</styleUrl>
        <Point>
          <coordinates>
            15.871685,41.9271181,0
          </coordinates>
        </Point>
      </Placemark>
      <Placemark>
        <name>5 E</name>
        <styleUrl>#icon-1899-0288D1-nodesc</styleUrl>
        <Point>
          <coordinates>
            15.8718076,41.9270941,0
          </coordinates>
        </Point>
      </Placemark>
      <Placemark>
        <name>7 E</name>
        <styleUrl>#icon-1899-0288D1-nodesc</styleUrl>
        <Point>
          <coordinates>
            15.8718737,41.9270941,0
          </coordinates>
        </Point>
      </Placemark>
      <Placemark>
        <name>7 E</name>
        <styleUrl>#icon-1899-0288D1-nodesc</styleUrl>
        <Point>
          <coordinates>
            15.8719594,41.9270844,0
          </coordinates>
        </Point>
      </Placemark>
      <Placemark>
        <name>9 E</name>
        <styleUrl>#icon-1899-0288D1-nodesc</styleUrl>
        <Point>
          <coordinates>
            15.8720336,41.927078,0
          </coordinates>
        </Point>
      </Placemark>
      <Placemark>
        <name>11 E</name>
        <styleUrl>#icon-1899-0288D1-nodesc</styleUrl>
        <Point>
          <coordinates>
            15.8720962,41.9270725,0
          </coordinates>
        </Point>
      </Placemark>
      <Placemark>
        <name>13 E</name>
        <styleUrl>#icon-1899-0288D1-nodesc</styleUrl>
        <Point>
          <coordinates>
            15.8721954,41.9270619,0
          </coordinates>
        </Point>
      </Placemark>
      <Placemark>
        <name>2 E</name>
        <styleUrl>#icon-1899-0288D1-nodesc</styleUrl>
        <Point>
          <coordinates>
            15.8718445,41.9271327,0
          </coordinates>
        </Point>
      </Placemark>
      <Placemark>
        <name>4 E</name>
        <styleUrl>#icon-1899-0288D1-nodesc</styleUrl>
        <Point>
          <coordinates>
            15.8720011,41.9271087,0
          </coordinates>
        </Point>
      </Placemark>
      <Placemark>
        <name>F 7</name>
        <styleUrl>#icon-1899-0288D1-nodesc</styleUrl>
        <Point>
          <coordinates>
            15.8714119,41.9265913,0
          </coordinates>
        </Point>
      </Placemark>
      <Placemark>
        <name>F 1</name>
        <styleUrl>#icon-1899-0288D1-nodesc</styleUrl>
        <Point>
          <coordinates>
            15.8712894,41.9266081,0
          </coordinates>
        </Point>
      </Placemark>
      <Placemark>
        <name>F 2</name>
        <styleUrl>#icon-1899-0288D1-nodesc</styleUrl>
        <Point>
          <coordinates>
            15.8711864,41.9266218,0
          </coordinates>
        </Point>
      </Placemark>
      <Placemark>
        <name>F3</name>
        <styleUrl>#icon-1899-0288D1-nodesc</styleUrl>
        <Point>
          <coordinates>
            15.8710755,41.9266323,0
          </coordinates>
        </Point>
      </Placemark>
      <Placemark>
        <name>F 4</name>
        <styleUrl>#icon-1899-0288D1-nodesc</styleUrl>
        <Point>
          <coordinates>
            15.8709586,41.926644,0
          </coordinates>
        </Point>
      </Placemark>
      <Placemark>
        <name>F 5</name>
        <styleUrl>#icon-1899-0288D1-nodesc</styleUrl>
        <Point>
          <coordinates>
            15.8708202,41.9266605,0
          </coordinates>
        </Point>
      </Placemark>
      <Placemark>
        <name>F 6</name>
        <styleUrl>#icon-1899-0288D1-nodesc</styleUrl>
        <Point>
          <coordinates>
            15.8707275,41.9266738,0
          </coordinates>
        </Point>
      </Placemark>
      <Placemark>
        <name>5 A</name>
        <styleUrl>#icon-1899-0288D1-nodesc</styleUrl>
        <Point>
          <coordinates>
            15.8708544,41.9267223,0
          </coordinates>
        </Point>
      </Placemark>
      <Placemark>
        <name>6 A</name>
        <styleUrl>#icon-1899-0288D1-nodesc</styleUrl>
        <Point>
          <coordinates>
            15.8707732,41.9267356,0
          </coordinates>
        </Point>
      </Placemark>
      <Placemark>
        <name>7 A</name>
        <styleUrl>#icon-1899-0288D1-nodesc</styleUrl>
        <Point>
          <coordinates>
            15.8706934,41.9267462,0
          </coordinates>
        </Point>
      </Placemark>
      <Placemark>
        <name>19 A</name>
        <styleUrl>#icon-1899-0288D1-nodesc</styleUrl>
        <Point>
          <coordinates>
            15.8708832,41.9267627,0
          </coordinates>
        </Point>
      </Placemark>
      <Placemark>
        <name>20 A</name>
        <styleUrl>#icon-1899-0288D1-nodesc</styleUrl>
        <Point>
          <coordinates>
            15.8707568,41.9267792,0
          </coordinates>
        </Point>
      </Placemark>
      <Placemark>
        <name>8 A</name>
        <styleUrl>#icon-1899-0288D1-nodesc</styleUrl>
        <Point>
          <coordinates>
            15.870701,41.9267954,0
          </coordinates>
        </Point>
      </Placemark>
      <Placemark>
        <name>9 A</name>
        <styleUrl>#icon-1899-0288D1-nodesc</styleUrl>
        <Point>
          <coordinates>
            15.8707044,41.9268398,0
          </coordinates>
        </Point>
      </Placemark>
      <Placemark>
        <name>10 A</name>
        <styleUrl>#icon-1899-0288D1-nodesc</styleUrl>
        <Point>
          <coordinates>
            15.8707031,41.9269004,0
          </coordinates>
        </Point>
      </Placemark>
      <Placemark>
        <name>11 A</name>
        <styleUrl>#icon-1899-0288D1-nodesc</styleUrl>
        <Point>
          <coordinates>
            15.870706,41.9269782,0
          </coordinates>
        </Point>
      </Placemark>
      <Placemark>
        <name>23 A</name>
        <styleUrl>#icon-1899-0288D1-nodesc</styleUrl>
        <Point>
          <coordinates>
            15.8707552,41.9269296,0
          </coordinates>
        </Point>
      </Placemark>
      <Placemark>
        <name>22 A</name>
        <styleUrl>#icon-1899-0288D1-nodesc</styleUrl>
        <Point>
          <coordinates>
            15.8707478,41.9268803,0
          </coordinates>
        </Point>
      </Placemark>
      <Placemark>
        <name>21 A</name>
        <styleUrl>#icon-1899-0288D1-nodesc</styleUrl>
        <Point>
          <coordinates>
            15.8707517,41.9268311,0
          </coordinates>
        </Point>
      </Placemark>
      <Placemark>
        <name>16 A</name>
        <styleUrl>#icon-1899-0288D1-nodesc</styleUrl>
        <Point>
          <coordinates>
            15.8708913,41.9269189,0
          </coordinates>
        </Point>
      </Placemark>
      <Placemark>
        <name>17 A</name>
        <styleUrl>#icon-1899-0288D1-nodesc</styleUrl>
        <Point>
          <coordinates>
            15.8708904,41.9268694,0
          </coordinates>
        </Point>
      </Placemark>
      <Placemark>
        <name>18 A</name>
        <styleUrl>#icon-1899-0288D1-nodesc</styleUrl>
        <Point>
          <coordinates>
            15.8708915,41.9268167,0
          </coordinates>
        </Point>
      </Placemark>
      <Placemark>
        <name>12 A</name>
        <styleUrl>#icon-1899-0288D1-nodesc</styleUrl>
        <Point>
          <coordinates>
            15.8707693,41.9269935,0
          </coordinates>
        </Point>
      </Placemark>
      <Placemark>
        <name>13 A</name>
        <styleUrl>#icon-1899-0288D1-nodesc</styleUrl>
        <Point>
          <coordinates>
            15.8708304,41.9269831,0
          </coordinates>
        </Point>
      </Placemark>
      <Placemark>
        <name>14 A</name>
        <styleUrl>#icon-1899-0288D1-nodesc</styleUrl>
        <Point>
          <coordinates>
            15.8708938,41.926973,0
          </coordinates>
        </Point>
      </Placemark>
      <Placemark>
        <name>15 A</name>
        <styleUrl>#icon-1899-0288D1-nodesc</styleUrl>
        <Point>
          <coordinates>
            15.8709433,41.9269436,0
          </coordinates>
        </Point>
      </Placemark>
      <Placemark>
        <name>2 A</name>
        <styleUrl>#icon-1899-0288D1-nodesc</styleUrl>
        <Point>
          <coordinates>
            15.8709377,41.9268157,0
          </coordinates>
        </Point>
      </Placemark>
      <Placemark>
        <name>3 A</name>
        <styleUrl>#icon-1899-0288D1-nodesc</styleUrl>
        <Point>
          <coordinates>
            15.8709305,41.9267632,0
          </coordinates>
        </Point>
      </Placemark>
      <Placemark>
        <name>4 A</name>
        <styleUrl>#icon-1899-0288D1-nodesc</styleUrl>
        <Point>
          <coordinates>
            15.8709166,41.9267138,0
          </coordinates>
        </Point>
      </Placemark>
      <Placemark>
        <name>1 A</name>
        <styleUrl>#icon-1899-0288D1-nodesc</styleUrl>
        <Point>
          <coordinates>
            15.8709415,41.9268723,0
          </coordinates>
        </Point>
      </Placemark>
      <Placemark>
        <name>21 B</name>
        <styleUrl>#icon-1899-0288D1-nodesc</styleUrl>
        <Point>
          <coordinates>
            15.8710834,41.9268136,0
          </coordinates>
        </Point>
      </Placemark>
      <Placemark>
        <name>21 BSud</name>
        <styleUrl>#icon-1899-0288D1-nodesc</styleUrl>
        <Point>
          <coordinates>
            15.8710761,41.926754,0
          </coordinates>
        </Point>
      </Placemark>
      <Placemark>
        <name>21 BNord</name>
        <styleUrl>#icon-1899-0288D1-nodesc</styleUrl>
        <Point>
          <coordinates>
            15.8710949,41.9268621,0
          </coordinates>
        </Point>
      </Placemark>
      <Placemark>
        <name>20 B</name>
        <styleUrl>#icon-1899-0288D1-nodesc</styleUrl>
        <Point>
          <coordinates>
            15.8711363,41.9269345,0
          </coordinates>
        </Point>
      </Placemark>
      <Placemark>
        <name>20 BOvest</name>
        <styleUrl>#icon-1899-0288D1-nodesc</styleUrl>
        <Point>
          <coordinates>
            15.8710618,41.9269435,0
          </coordinates>
        </Point>
      </Placemark>
      <Placemark>
        <name>20 BEst</name>
        <styleUrl>#icon-1899-0288D1-nodesc</styleUrl>
        <Point>
          <coordinates>
            15.871209,41.92693,0
          </coordinates>
        </Point>
      </Placemark>
      <Placemark>
        <name>9 B</name>
        <styleUrl>#icon-1899-0288D1-nodesc</styleUrl>
        <Point>
          <coordinates>
            15.871243,41.9267135,0
          </coordinates>
        </Point>
      </Placemark>
      <Placemark>
        <name>1 B</name>
        <styleUrl>#icon-1899-0288D1-nodesc</styleUrl>
        <Point>
          <coordinates>
            15.8709941,41.9268685,0
          </coordinates>
        </Point>
      </Placemark>
      <Placemark>
        <name>2 B</name>
        <styleUrl>#icon-1899-0288D1-nodesc</styleUrl>
        <Point>
          <coordinates>
            15.8709905,41.9268249,0
          </coordinates>
        </Point>
      </Placemark>
      <Placemark>
        <name>3 B</name>
        <styleUrl>#icon-1899-0288D1-nodesc</styleUrl>
        <Point>
          <coordinates>
            15.8709853,41.9267739,0
          </coordinates>
        </Point>
      </Placemark>
      <Placemark>
        <name>4 B</name>
        <styleUrl>#icon-1899-0288D1-nodesc</styleUrl>
        <Point>
          <coordinates>
            15.8709836,41.9267227,0
          </coordinates>
        </Point>
      </Placemark>
      <Placemark>
        <name>5 B</name>
        <styleUrl>#icon-1899-0288D1-nodesc</styleUrl>
        <Point>
          <coordinates>
            15.8710127,41.9266949,0
          </coordinates>
        </Point>
      </Placemark>
      <Placemark>
        <name>6 B</name>
        <styleUrl>#icon-1899-0288D1-nodesc</styleUrl>
        <Point>
          <coordinates>
            15.8710624,41.9266885,0
          </coordinates>
        </Point>
      </Placemark>
      <Placemark>
        <name>7 B</name>
        <styleUrl>#icon-1899-0288D1-nodesc</styleUrl>
        <Point>
          <coordinates>
            15.8711153,41.9266827,0
          </coordinates>
        </Point>
      </Placemark>
      <Placemark>
        <name>8 B</name>
        <styleUrl>#icon-1899-0288D1-nodesc</styleUrl>
        <Point>
          <coordinates>
            15.8711621,41.9266761,0
          </coordinates>
        </Point>
      </Placemark>
      <Placemark>
        <name>19 B</name>
        <styleUrl>#icon-1899-0288D1-nodesc</styleUrl>
        <Point>
          <coordinates>
            15.8709929,41.9269477,0
          </coordinates>
        </Point>
      </Placemark>
      <Placemark>
        <name>18 B</name>
        <styleUrl>#icon-1899-0288D1-nodesc</styleUrl>
        <Point>
          <coordinates>
            15.8709889,41.9269725,0
          </coordinates>
        </Point>
      </Placemark>
      <Placemark>
        <name>17 B</name>
        <styleUrl>#icon-1899-0288D1-nodesc</styleUrl>
        <Point>
          <coordinates>
            15.8709879,41.9270054,0
          </coordinates>
        </Point>
      </Placemark>
      <Placemark>
        <name>16 B</name>
        <styleUrl>#icon-1899-0288D1-nodesc</styleUrl>
        <Point>
          <coordinates>
            15.8710317,41.9270249,0
          </coordinates>
        </Point>
      </Placemark>
      <Placemark>
        <name>15 B</name>
        <styleUrl>#icon-1899-0288D1-nodesc</styleUrl>
        <Point>
          <coordinates>
            15.8710916,41.9270178,0
          </coordinates>
        </Point>
      </Placemark>
      <Placemark>
        <name>14 B</name>
        <styleUrl>#icon-1899-0288D1-nodesc</styleUrl>
        <Point>
          <coordinates>
            15.871155,41.927012,0
          </coordinates>
        </Point>
      </Placemark>
      <Placemark>
        <name>13 B</name>
        <styleUrl>#icon-1899-0288D1-nodesc</styleUrl>
        <Point>
          <coordinates>
            15.8712013,41.9270065,0
          </coordinates>
        </Point>
      </Placemark>
      <Placemark>
        <name>12 B</name>
        <styleUrl>#icon-1899-0288D1-nodesc</styleUrl>
        <Point>
          <coordinates>
            15.871253,41.9269404,0
          </coordinates>
        </Point>
      </Placemark>
      <Placemark>
        <name>15 B</name>
        <styleUrl>#icon-1899-0288D1-nodesc</styleUrl>
        <Point>
          <coordinates>
            15.8713479,41.9269618,0
          </coordinates>
        </Point>
      </Placemark>
      <Placemark>
        <name>16 B</name>
        <styleUrl>#icon-1899-0288D1-nodesc</styleUrl>
        <Point>
          <coordinates>
            15.8713469,41.9269067,0
          </coordinates>
        </Point>
      </Placemark>
      <Placemark>
        <name>10 B</name>
        <styleUrl>#icon-1899-0288D1-nodesc</styleUrl>
        <Point>
          <coordinates>
            15.8712879,41.9267975,0
          </coordinates>
        </Point>
      </Placemark>
      <Placemark>
        <name>11 B</name>
        <styleUrl>#icon-1899-0288D1-nodesc</styleUrl>
        <Point>
          <coordinates>
            15.8713028,41.9268225,0
          </coordinates>
        </Point>
      </Placemark>
      <Placemark>
        <name>17 C</name>
        <styleUrl>#icon-1899-0288D1-nodesc</styleUrl>
        <Point>
          <coordinates>
            15.871356,41.9268136,0
          </coordinates>
        </Point>
      </Placemark>
      <Placemark>
        <name>18 C</name>
        <styleUrl>#icon-1899-0288D1-nodesc</styleUrl>
        <Point>
          <coordinates>
            15.8713408,41.9267641,0
          </coordinates>
        </Point>
      </Placemark>
      <Placemark>
        <name>19 C</name>
        <styleUrl>#icon-1899-0288D1-nodesc</styleUrl>
        <Point>
          <coordinates>
            15.87138,41.9267413,0
          </coordinates>
        </Point>
      </Placemark>
      <Placemark>
        <name>20 C</name>
        <styleUrl>#icon-1899-0288D1-nodesc</styleUrl>
        <Point>
          <coordinates>
            15.8714615,41.9267328,0
          </coordinates>
        </Point>
      </Placemark>
      <Placemark>
        <name>21 C</name>
        <styleUrl>#icon-1899-0288D1-nodesc</styleUrl>
        <Point>
          <coordinates>
            15.8714664,41.926808,0
          </coordinates>
        </Point>
      </Placemark>
      <Placemark>
        <name>22 C</name>
        <styleUrl>#icon-1899-0288D1-nodesc</styleUrl>
        <Point>
          <coordinates>
            15.8714695,41.9268678,0
          </coordinates>
        </Point>
      </Placemark>
      <Placemark>
        <name>San Paolo Sud</name>
        <styleUrl>#icon-1899-0288D1-nodesc</styleUrl>
        <Point>
          <coordinates>
            15.871533,41.926944,0
          </coordinates>
        </Point>
      </Placemark>
      <Placemark>
        <name>San Paolo Est</name>
        <styleUrl>#icon-1899-0288D1-nodesc</styleUrl>
        <Point>
          <coordinates>
            15.8716861,41.926979,0
          </coordinates>
        </Point>
      </Placemark>
      <Placemark>
        <name>San Paolo Interno</name>
        <styleUrl>#icon-1899-0288D1-nodesc</styleUrl>
        <Point>
          <coordinates>
            15.8716536,41.9269217,0
          </coordinates>
        </Point>
      </Placemark>
      <Placemark>
        <name>14 C Chiesa San Pietro</name>
        <styleUrl>#icon-1899-0288D1-nodesc</styleUrl>
        <Point>
          <coordinates>
            15.8714297,41.92698,0
          </coordinates>
        </Point>
      </Placemark>
      <Placemark>
        <name>8 C</name>
        <styleUrl>#icon-1899-0288D1-nodesc</styleUrl>
        <Point>
          <coordinates>
            15.8716053,41.9268212,0
          </coordinates>
        </Point>
      </Placemark>
      <Placemark>
        <name>5 D</name>
        <styleUrl>#icon-1899-0288D1-nodesc</styleUrl>
        <Point>
          <coordinates>
            15.8720189,41.9267371,0
          </coordinates>
        </Point>
      </Placemark>
      <Placemark>
        <name>3 D</name>
        <styleUrl>#icon-1899-0288D1-nodesc</styleUrl>
        <Point>
          <coordinates>
            15.8718561,41.926753,0
          </coordinates>
        </Point>
      </Placemark>
      <Placemark>
        <name>1 D</name>
        <styleUrl>#icon-1899-0288D1-nodesc</styleUrl>
        <Point>
          <coordinates>
            15.8717889,41.9267636,0
          </coordinates>
        </Point>
      </Placemark>
      <Placemark>
        <name>2 D</name>
        <styleUrl>#icon-1899-0288D1-nodesc</styleUrl>
        <Point>
          <coordinates>
            15.8717461,41.9268271,0
          </coordinates>
        </Point>
      </Placemark>
      <Placemark>
        <name>4 D</name>
        <styleUrl>#icon-1899-0288D1-nodesc</styleUrl>
        <Point>
          <coordinates>
            15.8718085,41.9268194,0
          </coordinates>
        </Point>
      </Placemark>
      <Placemark>
        <name>6 D</name>
        <styleUrl>#icon-1899-0288D1-nodesc</styleUrl>
        <Point>
          <coordinates>
            15.8718852,41.9268069,0
          </coordinates>
        </Point>
      </Placemark>
      <Placemark>
        <name>1DD1</name>
        <styleUrl>#icon-1899-0288D1-nodesc</styleUrl>
        <Point>
          <coordinates>
            15.8717273,41.9268922,0
          </coordinates>
        </Point>
      </Placemark>
      <Placemark>
        <name>1DD3</name>
        <styleUrl>#icon-1899-0288D1-nodesc</styleUrl>
        <Point>
          <coordinates>
            15.8717279,41.9269415,0
          </coordinates>
        </Point>
      </Placemark>
      <Placemark>
        <name>1DD5</name>
        <styleUrl>#icon-1899-0288D1-nodesc</styleUrl>
        <Point>
          <coordinates>
            15.8717323,41.9270059,0
          </coordinates>
        </Point>
      </Placemark>
      <Placemark>
        <name>2DD7</name>
        <styleUrl>#icon-1899-0288D1-nodesc</styleUrl>
        <Point>
          <coordinates>
            15.8718139,41.9269743,0
          </coordinates>
        </Point>
      </Placemark>
      <Placemark>
        <name>2DD1</name>
        <styleUrl>#icon-1899-0288D1-nodesc</styleUrl>
        <Point>
          <coordinates>
            15.8719302,41.9269831,0
          </coordinates>
        </Point>
      </Placemark>
      <Placemark>
        <name>2DD3</name>
        <styleUrl>#icon-1899-0288D1-nodesc</styleUrl>
        <Point>
          <coordinates>
            15.8719252,41.9269446,0
          </coordinates>
        </Point>
      </Placemark>
      <Placemark>
        <name>2DD5</name>
        <styleUrl>#icon-1899-0288D1-nodesc</styleUrl>
        <Point>
          <coordinates>
            15.8719092,41.9268806,0
          </coordinates>
        </Point>
      </Placemark>
      <Placemark>
        <name>2DD9</name>
        <styleUrl>#icon-1899-0288D1-nodesc</styleUrl>
        <Point>
          <coordinates>
            15.8718114,41.9269252,0
          </coordinates>
        </Point>
      </Placemark>
      <Placemark>
        <name>18D1</name>
        <styleUrl>#icon-1899-0288D1-nodesc</styleUrl>
        <Point>
          <coordinates>
            15.8717141,41.9270585,0
          </coordinates>
        </Point>
      </Placemark>
      <Placemark>
        <name>20D1</name>
        <styleUrl>#icon-1899-0288D1-nodesc</styleUrl>
        <Point>
          <coordinates>
            15.8717568,41.9270601,0
          </coordinates>
        </Point>
      </Placemark>
      <Placemark>
        <name>22D1</name>
        <styleUrl>#icon-1899-0288D1-nodesc</styleUrl>
        <Point>
          <coordinates>
            15.8718096,41.9270552,0
          </coordinates>
        </Point>
      </Placemark>
      <Placemark>
        <name>24D1</name>
        <styleUrl>#icon-1899-0288D1-nodesc</styleUrl>
        <Point>
          <coordinates>
            15.8718581,41.9270425,0
          </coordinates>
        </Point>
      </Placemark>
      <Placemark>
        <name>26D1</name>
        <styleUrl>#icon-1899-0288D1-nodesc</styleUrl>
        <Point>
          <coordinates>
            15.871915,41.9270337,0
          </coordinates>
        </Point>
      </Placemark>
      <Placemark>
        <name>28D1</name>
        <styleUrl>#icon-1899-0288D1-nodesc</styleUrl>
        <Point>
          <coordinates>
            15.871958,41.927028,0
          </coordinates>
        </Point>
      </Placemark>
      <Placemark>
        <name>30D1</name>
        <styleUrl>#icon-1899-0288D1-nodesc</styleUrl>
        <Point>
          <coordinates>
            15.8720053,41.927022,0
          </coordinates>
        </Point>
      </Placemark>
      <Placemark>
        <name>32 D</name>
        <styleUrl>#icon-1899-0288D1-nodesc</styleUrl>
        <Point>
          <coordinates>
            15.8720542,41.9270143,0
          </coordinates>
        </Point>
      </Placemark>
      <Placemark>
        <name>34 D</name>
        <styleUrl>#icon-1899-0288D1-nodesc</styleUrl>
        <Point>
          <coordinates>
            15.8721071,41.9270063,0
          </coordinates>
        </Point>
      </Placemark>
      <Placemark>
        <name>36 D</name>
        <styleUrl>#icon-1899-0288D1-nodesc</styleUrl>
        <Point>
          <coordinates>
            15.8721887,41.9269978,0
          </coordinates>
        </Point>
      </Placemark>
      <Placemark>
        <name>38 D</name>
        <styleUrl>#icon-1899-0288D1-nodesc</styleUrl>
        <Point>
          <coordinates>
            15.8722536,41.9269928,0
          </coordinates>
        </Point>
      </Placemark>
      <Placemark>
        <name>17 E</name>
        <styleUrl>#icon-1899-0288D1-nodesc</styleUrl>
        <Point>
          <coordinates>
            15.8723282,41.9270495,0
          </coordinates>
        </Point>
      </Placemark>
      <Placemark>
        <name>40 D</name>
        <styleUrl>#icon-1899-0288D1-nodesc</styleUrl>
        <Point>
          <coordinates>
            15.8723138,41.9269839,0
          </coordinates>
        </Point>
      </Placemark>
      <Placemark>
        <name>42 D</name>
        <styleUrl>#icon-1899-0288D1-nodesc</styleUrl>
        <Point>
          <coordinates>
            15.8723751,41.9269724,0
          </coordinates>
        </Point>
      </Placemark>
      <Placemark>
        <name>44 D</name>
        <styleUrl>#icon-1899-0288D1-nodesc</styleUrl>
        <Point>
          <coordinates>
            15.8724133,41.9269681,0
          </coordinates>
        </Point>
      </Placemark>
      <Placemark>
        <name>46 D</name>
        <styleUrl>#icon-1899-0288D1-nodesc</styleUrl>
        <Point>
          <coordinates>
            15.8724579,41.9269648,0
          </coordinates>
        </Point>
      </Placemark>
      <Placemark>
        <name>46 D</name>
        <styleUrl>#icon-1899-0288D1-nodesc</styleUrl>
        <Point>
          <coordinates>
            15.872514,41.9269538,0
          </coordinates>
        </Point>
      </Placemark>
      <Placemark>
        <name>48 D</name>
        <styleUrl>#icon-1899-0288D1-nodesc</styleUrl>
        <Point>
          <coordinates>
            15.8725544,41.9269454,0
          </coordinates>
        </Point>
      </Placemark>
      <Placemark>
        <name>50 D</name>
        <styleUrl>#icon-1899-0288D1-nodesc</styleUrl>
        <Point>
          <coordinates>
            15.8725955,41.9269382,0
          </coordinates>
        </Point>
      </Placemark>
      <Placemark>
        <name>17 D</name>
        <styleUrl>#icon-1899-0288D1-nodesc</styleUrl>
        <Point>
          <coordinates>
            15.8719222,41.9265611,0
          </coordinates>
        </Point>
      </Placemark>
      <Placemark>
        <name>19 D</name>
        <styleUrl>#icon-1899-0288D1-nodesc</styleUrl>
        <Point>
          <coordinates>
            15.8719827,41.9265524,0
          </coordinates>
        </Point>
      </Placemark>
      <Placemark>
        <name>2DD6</name>
        <styleUrl>#icon-1899-0288D1-nodesc</styleUrl>
        <Point>
          <coordinates>
            15.8719728,41.9266679,0
          </coordinates>
        </Point>
      </Placemark>
      <Placemark>
        <name>20 D</name>
        <styleUrl>#icon-1899-0288D1-nodesc</styleUrl>
        <Point>
          <coordinates>
            15.8719936,41.9266092,0
          </coordinates>
        </Point>
      </Placemark>
      <Placemark>
        <name>21 D</name>
        <styleUrl>#icon-1899-0288D1-nodesc</styleUrl>
        <Point>
          <coordinates>
            15.8720486,41.9265402,0
          </coordinates>
        </Point>
      </Placemark>
      <Placemark>
        <name>23 D</name>
        <styleUrl>#icon-1899-0288D1-nodesc</styleUrl>
        <Point>
          <coordinates>
            15.872113,41.926528,0
          </coordinates>
        </Point>
      </Placemark>
      <Placemark>
        <name>25 D</name>
        <styleUrl>#icon-1899-0288D1-nodesc</styleUrl>
        <Point>
          <coordinates>
            15.8721694,41.9265102,0
          </coordinates>
        </Point>
      </Placemark>
      <Placemark>
        <name>27 D</name>
        <styleUrl>#icon-1899-0288D1-nodesc</styleUrl>
        <Point>
          <coordinates>
            15.8722215,41.9265049,0
          </coordinates>
        </Point>
      </Placemark>
      <Placemark>
        <name>29 D</name>
        <styleUrl>#icon-1899-0288D1-nodesc</styleUrl>
        <Point>
          <coordinates>
            15.8722845,41.9264812,0
          </coordinates>
        </Point>
      </Placemark>
      <Placemark>
        <name>31 D</name>
        <styleUrl>#icon-1899-0288D1-nodesc</styleUrl>
        <Point>
          <coordinates>
            15.8723461,41.9264917,0
          </coordinates>
        </Point>
      </Placemark>
      <Placemark>
        <name>33 D</name>
        <styleUrl>#icon-1899-0288D1-nodesc</styleUrl>
        <Point>
          <coordinates>
            15.8723994,41.9264848,0
          </coordinates>
        </Point>
      </Placemark>
      <Placemark>
        <name>4DD18</name>
        <styleUrl>#icon-1899-0288D1-nodesc</styleUrl>
        <Point>
          <coordinates>
            15.8725063,41.9264487,0
          </coordinates>
        </Point>
      </Placemark>
      <Placemark>
        <name>4DD16</name>
        <styleUrl>#icon-1899-0288D1-nodesc</styleUrl>
        <Point>
          <coordinates>
            15.8725187,41.9265285,0
          </coordinates>
        </Point>
      </Placemark>
      <Placemark>
        <name>4DD14</name>
        <styleUrl>#icon-1899-0288D1-nodesc</styleUrl>
        <Point>
          <coordinates>
            15.8725177,41.9266115,0
          </coordinates>
        </Point>
      </Placemark>
      <Placemark>
        <name>4DD12</name>
        <styleUrl>#icon-1899-0288D1-nodesc</styleUrl>
        <Point>
          <coordinates>
            15.872529,41.9266906,0
          </coordinates>
        </Point>
      </Placemark>
      <Placemark>
        <name>4DD10</name>
        <styleUrl>#icon-1899-0288D1-nodesc</styleUrl>
        <Point>
          <coordinates>
            15.8725378,41.9267619,0
          </coordinates>
        </Point>
      </Placemark>
      <Placemark>
        <name>4DD8</name>
        <styleUrl>#icon-1899-0288D1-nodesc</styleUrl>
        <Point>
          <coordinates>
            15.8725387,41.9268013,0
          </coordinates>
        </Point>
      </Placemark>
      <Placemark>
        <name>4DD6</name>
        <styleUrl>#icon-1899-0288D1-nodesc</styleUrl>
        <Point>
          <coordinates>
            15.872539,41.9268448,0
          </coordinates>
        </Point>
      </Placemark>
      <Placemark>
        <name>4DD4</name>
        <styleUrl>#icon-1899-0288D1-nodesc</styleUrl>
        <Point>
          <coordinates>
            15.872567,41.9268846,0
          </coordinates>
        </Point>
      </Placemark>
      <Placemark>
        <name>4DD2</name>
        <styleUrl>#icon-1899-0288D1-nodesc</styleUrl>
        <Point>
          <coordinates>
            15.8725309,41.9268923,0
          </coordinates>
        </Point>
      </Placemark>
      <Placemark>
        <name>25D1</name>
        <styleUrl>#icon-1899-0288D1-nodesc</styleUrl>
        <Point>
          <coordinates>
            15.8725825,41.9269135,0
          </coordinates>
        </Point>
      </Placemark>
      <Placemark>
        <name>8 D</name>
        <styleUrl>#icon-1899-0288D1-nodesc</styleUrl>
        <Point>
          <coordinates>
            15.8720076,41.9268052,0
          </coordinates>
        </Point>
      </Placemark>
      <Placemark>
        <name>15D1</name>
        <styleUrl>#icon-1899-0288D1-nodesc</styleUrl>
        <Point>
          <coordinates>
            15.8720625,41.9269908,0
          </coordinates>
        </Point>
      </Placemark>
      <Placemark>
        <name>17D1</name>
        <styleUrl>#icon-1899-0288D1-nodesc</styleUrl>
        <Point>
          <coordinates>
            15.8721252,41.9269521,0
          </coordinates>
        </Point>
      </Placemark>
      <Placemark>
        <name>19D1</name>
        <styleUrl>#icon-1899-0288D1-nodesc</styleUrl>
        <Point>
          <coordinates>
            15.8722038,41.926973,0
          </coordinates>
        </Point>
      </Placemark>
      <Placemark>
        <name>3DD1</name>
        <styleUrl>#icon-1899-0288D1-nodesc</styleUrl>
        <Point>
          <coordinates>
            15.8722093,41.9269276,0
          </coordinates>
        </Point>
      </Placemark>
      <Placemark>
        <name>2DD4</name>
        <styleUrl>#icon-1899-0288D1-nodesc</styleUrl>
        <Point>
          <coordinates>
            15.8720748,41.9268768,0
          </coordinates>
        </Point>
      </Placemark>
      <Placemark>
        <name>2DD2</name>
        <styleUrl>#icon-1899-0288D1-nodesc</styleUrl>
        <Point>
          <coordinates>
            15.8720112,41.9269352,0
          </coordinates>
        </Point>
      </Placemark>
      <Placemark>
        <name>10 D</name>
        <styleUrl>#icon-1899-0288D1-nodesc</styleUrl>
        <Point>
          <coordinates>
            15.8720774,41.926799,0
          </coordinates>
        </Point>
      </Placemark>
      <Placemark>
        <name>12 D</name>
        <styleUrl>#icon-1899-0288D1-nodesc</styleUrl>
        <Point>
          <coordinates>
            15.8721346,41.9267946,0
          </coordinates>
        </Point>
      </Placemark>
      <Placemark>
        <name>23D1</name>
        <styleUrl>#icon-1899-0288D1-nodesc</styleUrl>
        <Point>
          <coordinates>
            15.8724555,41.9269431,0
          </coordinates>
        </Point>
      </Placemark>
      <Placemark>
        <name>4DD1</name>
        <styleUrl>#icon-1899-0288D1-nodesc</styleUrl>
        <Point>
          <coordinates>
            15.8724872,41.9268727,0
          </coordinates>
        </Point>
      </Placemark>
      <Placemark>
        <name>18 D</name>
        <styleUrl>#icon-1899-0288D1-nodesc</styleUrl>
        <Point>
          <coordinates>
            15.8724843,41.9268136,0
          </coordinates>
        </Point>
      </Placemark>
      <Placemark>
        <name>16 D</name>
        <styleUrl>#icon-1899-0288D1-nodesc</styleUrl>
        <Point>
          <coordinates>
            15.8724011,41.9268172,0
          </coordinates>
        </Point>
      </Placemark>
      <Placemark>
        <name>3DD4</name>
        <styleUrl>#icon-1899-0288D1-nodesc</styleUrl>
        <Point>
          <coordinates>
            15.8723104,41.9269554,0
          </coordinates>
        </Point>
      </Placemark>
      <Placemark>
        <name>3DD6</name>
        <styleUrl>#icon-1899-0288D1-nodesc</styleUrl>
        <Point>
          <coordinates>
            15.8722998,41.9268955,0
          </coordinates>
        </Point>
      </Placemark>
      <Placemark>
        <name>16 D</name>
        <styleUrl>#icon-1899-0288D1-nodesc</styleUrl>
        <Point>
          <coordinates>
            15.8723432,41.9268264,0
          </coordinates>
        </Point>
      </Placemark>
      <Placemark>
        <name>14 D</name>
        <styleUrl>#icon-1899-0288D1-nodesc</styleUrl>
        <Point>
          <coordinates>
            15.8722799,41.9268346,0
          </coordinates>
        </Point>
      </Placemark>
      <Placemark>
        <name>3DD3</name>
        <styleUrl>#icon-1899-0288D1-nodesc</styleUrl>
        <Point>
          <coordinates>
            15.8722028,41.9268886,0
          </coordinates>
        </Point>
      </Placemark>
      <Placemark>
        <name>12 D</name>
        <styleUrl>#icon-1899-0288D1-nodesc</styleUrl>
        <Point>
          <coordinates>
            15.8721955,41.9268556,0
          </coordinates>
        </Point>
      </Placemark>
      <Placemark>
        <name>7 D</name>
        <styleUrl>#icon-1899-0288D1-nodesc</styleUrl>
        <Point>
          <coordinates>
            15.8721189,41.9267247,0
          </coordinates>
        </Point>
      </Placemark>
      <Placemark>
        <name>9 D</name>
        <styleUrl>#icon-1899-0288D1-nodesc</styleUrl>
        <Point>
          <coordinates>
            15.8721916,41.9267206,0
          </coordinates>
        </Point>
      </Placemark>
      <Placemark>
        <name>3DD5</name>
        <styleUrl>#icon-1899-0288D1-nodesc</styleUrl>
        <Point>
          <coordinates>
            15.8722169,41.9266321,0
          </coordinates>
        </Point>
      </Placemark>
      <Placemark>
        <name>24 D</name>
        <styleUrl>#icon-1899-0288D1-nodesc</styleUrl>
        <Point>
          <coordinates>
            15.8722051,41.9265545,0
          </coordinates>
        </Point>
      </Placemark>
      <Placemark>
        <name>22 D</name>
        <styleUrl>#icon-1899-0288D1-nodesc</styleUrl>
        <Point>
          <coordinates>
            15.8721038,41.9265949,0
          </coordinates>
        </Point>
      </Placemark>
      <Placemark>
        <name>11 D</name>
        <styleUrl>#icon-1899-0288D1-nodesc</styleUrl>
        <Point>
          <coordinates>
            15.8723042,41.926688,0
          </coordinates>
        </Point>
      </Placemark>
      <Placemark>
        <name>13 D</name>
        <styleUrl>#icon-1899-0288D1-nodesc</styleUrl>
        <Point>
          <coordinates>
            15.8723675,41.9266785,0
          </coordinates>
        </Point>
      </Placemark>
      <Placemark>
        <name>15 D</name>
        <styleUrl>#icon-1899-0288D1-nodesc</styleUrl>
        <Point>
          <coordinates>
            15.8724334,41.9266726,0
          </coordinates>
        </Point>
      </Placemark>
      <Placemark>
        <name>3DD8</name>
        <styleUrl>#icon-1899-0288D1-nodesc</styleUrl>
        <Point>
          <coordinates>
            15.872293,41.9266093,0
          </coordinates>
        </Point>
      </Placemark>
      <Placemark>
        <name>26 D</name>
        <styleUrl>#icon-1899-0288D1-nodesc</styleUrl>
        <Point>
          <coordinates>
            15.8722929,41.9265416,0
          </coordinates>
        </Point>
      </Placemark>
      <Placemark>
        <name>28 D</name>
        <styleUrl>#icon-1899-0288D1-nodesc</styleUrl>
        <Point>
          <coordinates>
            15.8723487,41.9265362,0
          </coordinates>
        </Point>
      </Placemark>
      <Placemark>
        <name>30 D</name>
        <styleUrl>#icon-1899-0288D1-nodesc</styleUrl>
        <Point>
          <coordinates>
            15.8724145,41.9265288,0
          </coordinates>
        </Point>
      </Placemark>
      <Placemark>
        <name>3DD9</name>
        <styleUrl>#icon-1899-0288D1-nodesc</styleUrl>
        <Point>
          <coordinates>
            15.8724279,41.926585,0
          </coordinates>
        </Point>
      </Placemark>
      <Placemark>
        <name>1 G</name>
        <styleUrl>#icon-1899-0288D1-nodesc</styleUrl>
        <Point>
          <coordinates>
            15.8726979,41.9268854,0
          </coordinates>
        </Point>
      </Placemark>
      <Placemark>
        <name>2 G</name>
        <styleUrl>#icon-1899-0288D1-nodesc</styleUrl>
        <Point>
          <coordinates>
            15.8727785,41.9268718,0
          </coordinates>
        </Point>
      </Placemark>
      <Placemark>
        <name>3 G</name>
        <styleUrl>#icon-1899-0288D1-nodesc</styleUrl>
        <Point>
          <coordinates>
            15.8727469,41.9268015,0
          </coordinates>
        </Point>
      </Placemark>
      <Placemark>
        <name>Linea 234</name>
        <styleUrl>#line-0288D1-1200-nodesc</styleUrl>
        <LineString>
          <tessellate>1</tessellate>
          <coordinates>
            15.8715843,41.9265728,0
            15.8715977,41.9266945,0
            15.8717225,41.9267973,0
            15.8719598,41.9267634,0
            15.8719411,41.9265958,0
            15.8724614,41.926497,0
            15.8724882,41.9266975,0
            15.872515,41.9269359,0
            15.8722883,41.9269658,0
            15.8722642,41.9267253,0
            15.8724694,41.9266994,0
            15.8724908,41.9266964,0
          </coordinates>
        </LineString>
      </Placemark>
      <Placemark>
        <name>Linea 235</name>
        <styleUrl>#line-0288D1-1200-nodesc</styleUrl>
        <LineString>
          <tessellate>1</tessellate>
          <coordinates>
            15.8719598,41.9267634,0
            15.8722615,41.9267323,0
          </coordinates>
        </LineString>
      </Placemark>
      <Placemark>
        <name>Linea 236</name>
        <styleUrl>#line-0288D1-1200-nodesc</styleUrl>
        <LineString>
          <tessellate>1</tessellate>
          <coordinates>
            15.8715977,41.9266945,0
            15.8715105,41.9268201,0
            15.8713683,41.9268401,0
            15.8710465,41.9268845,0
          </coordinates>
        </LineString>
      </Placemark>
    </Folder>
  </Document>
</kml>
